{"type":"FeatureCollection","features":[{"type":"Feature","geometry":{"type":"Polygon","coordinates":[[[2.700279,39.455739],[2.699682,39.455856],[2.699318,39.45618],[2.699338,39.457855],[2.700107,39.46009],[2.700253,39.46105],[2.700034,39.461889],[2.699485,39.462917],[2.699577,39.464328],[2.699597,39.464633],[2.699683,39.46594],[2.699561,39.466952],[2.699262,39.46754],[2.698102,39.468284],[2.696743,39.468808],[2.695894,39.469523],[2.695726,39.470147],[2.695853,39.470787],[2.696423,39.471401],[2.697121,39.47172],[2.697493,39.472102],[2.697579,39.472628],[2.697855,39.473214],[2.698098,39.473469],[2.698553,39.473556],[2.699022,39.473643],[2.699047,39.4737],[2.699032,39.473698],[2.63592,39.467892],[2.635919,39.401893],[2.749425,39.304821],[2.882483,39.30482],[2.882298,39.07734],[3.019567,39.077339],[3.101906,39.295737],[3.101905,39.295737],[3.101873,39.295738],[3.101795,39.295744],[3.101763,39.295749],[3.101749,39.295754],[3.101725,39.295764],[3.101697,39.295779],[3.101687,39.295786],[3.101679,39.295796],[3.101675,39.295805],[3.101674,39.295815],[3.101675,39.29583],[3.101674,39.295858],[3.10167,39.295864],[3.101665,39.29587],[3.101655,39.295877],[3.101647,39.295879],[3.101639,39.295878],[3.10163,39.295875],[3.10162,39.295869],[3.101603,39.295856],[3.101581,39.295842],[3.101578,39.29584],[3.101548,39.295824],[3.101434,39.295761],[3.101424,39.295752],[3.101361,39.295697],[3.10135,39.295684],[3.101288,39.295614],[3.101264,39.295583],[3.101251,39.295561],[3.101239,39.295536],[3.101236,39.295522],[3.101235,39.295508],[3.101237,39.295493],[3.101238,39.295493],[3.101244,39.295473],[3.101251,39.29544],[3.10125,39.295428],[3.101247,39.295406],[3.10124,39.295385],[3.10124,39.295381],[3.101236,39.29536],[3.101235,39.295338],[3.101233,39.295299],[3.101232,39.295278],[3.101232,39.295264],[3.101229,39.295188],[3.101228,39.295169],[3.101231,39.295159],[3.101242,39.29513],[3.101242,39.295129],[3.101243,39.295126],[3.101244,39.295123],[3.101253,39.295089],[3.101254,39.295083],[3.101255,39.295072],[3.101253,39.295058],[3.101249,39.295042],[3.101241,39.295028],[3.101241,39.295027],[3.101232,39.295015],[3.101218,39.295001],[3.101209,39.294994],[3.1012,39.294987],[3.101181,39.294974],[3.101154,39.294959],[3.101093,39.294923],[3.101079,39.294917],[3.10106,39.294913],[3.101048,39.29491],[3.101035,39.294908],[3.101032,39.294908],[3.100944,39.29489],[3.10094,39.294887],[3.10094,39.294887],[3.100937,39.294881],[3.100938,39.294875],[3.100941,39.294868],[3.100947,39.294861],[3.100948,39.29486],[3.100956,39.294855],[3.100969,39.294849],[3.100983,39.294845],[3.100998,39.294843],[3.101019,39.294844],[3.101048,39.294842],[3.101064,39.294838],[3.101082,39.294831],[3.101082,39.294831],[3.101111,39.294818],[3.101146,39.294799],[3.101164,39.294786],[3.101192,39.294764],[3.101202,39.294753],[3.101206,39.294744],[3.101207,39.294737],[3.101207,39.294734],[3.101205,39.294723],[3.101201,39.294713],[3.101194,39.294704],[3.101184,39.294695],[3.101163,39.294681],[3.101123,39.29465],[3.101088,39.294626],[3.101074,39.29462],[3.10105,39.294612],[3.101017,39.294603],[3.100994,39.294599],[3.10097,39.294594],[3.100899,39.294581],[3.100798,39.294566],[3.100778,39.294565],[3.10075,39.294566],[3.100663,39.294569],[3.100645,39.294567],[3.100637,39.294567],[3.100636,39.294567],[3.100624,39.294564],[3.100615,39.294559],[3.100607,39.294553],[3.100604,39.294547],[3.100603,39.294546],[3.100601,39.294537],[3.100593,39.29449],[3.100588,39.294464],[3.100582,39.294445],[3.100577,39.294438],[3.100571,39.294433],[3.100563,39.294425],[3.100525,39.294393],[3.100512,39.294385],[3.100497,39.294379],[3.100466,39.294369],[3.100439,39.294363],[3.100419,39.294361],[3.100387,39.29436],[3.100365,39.294361],[3.100353,39.294361],[3.100333,39.294361],[3.100328,39.294359],[3.100327,39.294358],[3.100324,39.294354],[3.100321,39.294346],[3.10032,39.294341],[3.100319,39.294332],[3.100312,39.294309],[3.100307,39.294303],[3.100292,39.294288],[3.100275,39.294276],[3.100254,39.294263],[3.100211,39.294241],[3.100177,39.29422],[3.100165,39.29421],[3.100149,39.294193],[3.100135,39.294175],[3.100114,39.294151],[3.100102,39.294141],[3.10009,39.294135],[3.100078,39.294131],[3.100062,39.29413],[3.100006,39.29412],[3.099993,39.294116],[3.099973,39.294107],[3.099949,39.294096],[3.099943,39.294093],[3.099886,39.294068],[3.099876,39.294067],[3.099854,39.294065],[3.099796,39.29406],[3.099795,39.294059],[3.099782,39.294056],[3.09976,39.294047],[3.099752,39.294042],[3.099749,39.294036],[3.099748,39.294029],[3.099749,39.294017],[3.099755,39.293994],[3.099757,39.293977],[3.099755,39.293975],[3.099757,39.293966],[3.099756,39.293959],[3.099751,39.293941],[3.099746,39.293917],[3.099745,39.293909],[3.099735,39.293872],[3.09973,39.293868],[3.099719,39.293858],[3.09971,39.29385],[3.099684,39.293825],[3.099673,39.29381],[3.099638,39.29377],[3.09963,39.293764],[3.099614,39.293757],[3.099597,39.293751],[3.099564,39.293744],[3.099512,39.293729],[3.099501,39.293723],[3.09945,39.293696],[3.099429,39.293681],[3.099401,39.293664],[3.099333,39.293645],[3.099308,39.29364],[3.099291,39.293638],[3.099279,39.293639],[3.099254,39.293645],[3.099246,39.293648],[3.099234,39.293648],[3.099229,39.293648],[3.099173,39.293606],[3.099161,39.293596],[3.09915,39.29359],[3.099138,39.293586],[3.099133,39.293585],[3.099101,39.293598],[3.099094,39.293601],[3.099077,39.293604],[3.099058,39.293604],[3.099032,39.293607],[3.099006,39.293612],[3.098989,39.293617],[3.098953,39.293633],[3.09894,39.29364],[3.098928,39.293645],[3.098912,39.293647],[3.098901,39.293647],[3.098893,39.293646],[3.098887,39.293642],[3.098877,39.29363],[3.098871,39.293617],[3.098868,39.293605],[3.098867,39.293571],[3.098869,39.293555],[3.098868,39.293546],[3.098865,39.29354],[3.098851,39.293528],[3.098837,39.293519],[3.098795,39.293479],[3.098787,39.293471],[3.098766,39.293457],[3.098762,39.293452],[3.098753,39.293448],[3.09874,39.29344],[3.098721,39.293429],[3.098698,39.293412],[3.098681,39.293401],[3.098634,39.293379],[3.098587,39.29336],[3.098556,39.293345],[3.098534,39.293336],[3.098522,39.293333],[3.098492,39.29333],[3.098469,39.29333],[3.09845,39.293328],[3.098431,39.293323],[3.098418,39.293322],[3.098408,39.293323],[3.098398,39.293326],[3.098393,39.293328],[3.098381,39.293355],[3.098379,39.293359],[3.098331,39.293384],[3.0983,39.293399],[3.09826,39.293414],[3.098247,39.293418],[3.098229,39.293428],[3.098216,39.293437],[3.098207,39.293442],[3.098194,39.293445],[3.09818,39.293446],[3.098166,39.293445],[3.098154,39.293441],[3.098147,39.293438],[3.098121,39.293409],[3.098115,39.293402],[3.098107,39.293396],[3.098092,39.29339],[3.098077,39.293386],[3.098056,39.293384],[3.098042,39.293385],[3.098033,39.293386],[3.097997,39.293407],[3.097988,39.293413],[3.097976,39.293417],[3.097964,39.293419],[3.097953,39.293419],[3.097953,39.293419],[3.097952,39.293419],[3.097939,39.293415],[3.097931,39.293412],[3.097926,39.293407],[3.097925,39.293404],[3.097933,39.293391],[3.097953,39.293367],[3.097962,39.293355],[3.097965,39.293348],[3.097967,39.293344],[3.097968,39.293336],[3.097966,39.293323],[3.097963,39.293315],[3.097925,39.29327],[3.097917,39.293261],[3.09791,39.293249],[3.097907,39.29324],[3.097907,39.293231],[3.097911,39.293222],[3.097914,39.293217],[3.097934,39.293206],[3.097941,39.293202],[3.097953,39.293197],[3.097963,39.29319],[3.09797,39.293182],[3.097973,39.293175],[3.097974,39.29317],[3.097969,39.293162],[3.097958,39.293152],[3.097952,39.293148],[3.097943,39.293142],[3.097925,39.293134],[3.097907,39.293128],[3.097902,39.293126],[3.097886,39.293105],[3.097881,39.293097],[3.097878,39.293095],[3.097853,39.293093],[3.097843,39.293094],[3.097837,39.293093],[3.097834,39.29309],[3.097825,39.293053],[3.097821,39.293027],[3.097816,39.293008],[3.097809,39.292993],[3.097801,39.29298],[3.097789,39.292967],[3.097781,39.292956],[3.09777,39.292929],[3.097768,39.292922],[3.097765,39.292909],[3.097761,39.292884],[3.097761,39.292871],[3.097761,39.29287],[3.097759,39.292862],[3.097753,39.292853],[3.097745,39.292846],[3.097736,39.292841],[3.097728,39.292838],[3.097718,39.292837],[3.097652,39.292835],[3.097609,39.292834],[3.097585,39.292833],[3.097567,39.29283],[3.097547,39.292826],[3.097539,39.292825],[3.097534,39.292822],[3.097531,39.292816],[3.097528,39.29275],[3.097528,39.292749],[3.097529,39.292734],[3.097529,39.292734],[3.097523,39.292701],[3.097519,39.292684],[3.097514,39.292674],[3.097508,39.292667],[3.0975,39.292661],[3.09749,39.292657],[3.097472,39.292654],[3.09746,39.292654],[3.097452,39.292655],[3.097433,39.292665],[3.097409,39.292662],[3.097407,39.292662],[3.097359,39.292681],[3.097313,39.292696],[3.097291,39.292703],[3.097274,39.292709],[3.097245,39.292725],[3.097221,39.292738],[3.097199,39.292749],[3.09717,39.292762],[3.09713,39.292778],[3.097116,39.292786],[3.097101,39.292789],[3.097048,39.292795],[3.097004,39.29279],[3.096991,39.292787],[3.096982,39.292785],[3.096974,39.292784],[3.096969,39.292786],[3.096949,39.292805],[3.096945,39.292809],[3.096941,39.292811],[3.096934,39.292811],[3.096932,39.292811],[3.096927,39.292809],[3.09692,39.292799],[3.096913,39.292784],[3.096909,39.292777],[3.096903,39.292773],[3.096893,39.292769],[3.096884,39.292768],[3.096795,39.292782],[3.096776,39.292786],[3.096752,39.292787],[3.096744,39.292787],[3.096736,39.292789],[3.096728,39.292794],[3.096722,39.2928],[3.096719,39.292807],[3.09672,39.29282],[3.096722,39.292828],[3.096722,39.29283],[3.09672,39.292847],[3.096717,39.292859],[3.096717,39.292876],[3.096718,39.292886],[3.096717,39.292891],[3.096704,39.292908],[3.096693,39.29292],[3.096688,39.292927],[3.096685,39.292936],[3.096685,39.292944],[3.09669,39.292953],[3.096698,39.292962],[3.0967,39.292966],[3.096699,39.29297],[3.096695,39.292973],[3.096681,39.292975],[3.096672,39.292975],[3.096633,39.292986],[3.096625,39.292989],[3.096615,39.292989],[3.09661,39.292989],[3.096582,39.29299],[3.096559,39.29299],[3.096538,39.29299],[3.09652,39.29299],[3.096513,39.29299],[3.096499,39.292983],[3.096495,39.292981],[3.09648,39.292971],[3.096459,39.292961],[3.096452,39.292959],[3.096445,39.292956],[3.096428,39.292953],[3.096415,39.292953],[3.096408,39.292954],[3.096377,39.29297],[3.096314,39.29301],[3.096306,39.293016],[3.096297,39.293018],[3.096291,39.293018],[3.096266,39.29301],[3.096248,39.293001],[3.096134,39.292964],[3.096118,39.292958],[3.096107,39.292955],[3.096098,39.29295],[3.096089,39.292942],[3.096084,39.292933],[3.096081,39.292924],[3.096082,39.292904],[3.096084,39.29289],[3.096083,39.292864],[3.096082,39.292855],[3.096083,39.292847],[3.096087,39.29284],[3.096095,39.292833],[3.096099,39.292831],[3.096137,39.292834],[3.096154,39.292837],[3.096161,39.292837],[3.096165,39.292837],[3.096175,39.292835],[3.096185,39.292829],[3.09619,39.292825],[3.096192,39.292821],[3.096191,39.292818],[3.096185,39.292814],[3.096177,39.292809],[3.096155,39.292795],[3.096137,39.292784],[3.096132,39.292781],[3.096123,39.292766],[3.096121,39.292761],[3.096117,39.292756],[3.096108,39.292753],[3.096101,39.292752],[3.096091,39.292755],[3.09605,39.292764],[3.096036,39.292768],[3.096014,39.292771],[3.096011,39.292771],[3.095996,39.292772],[3.095983,39.292774],[3.095974,39.292774],[3.095965,39.292772],[3.095961,39.29277],[3.095926,39.29275],[3.095898,39.292733],[3.095877,39.292721],[3.095807,39.292692],[3.095796,39.292688],[3.09579,39.292684],[3.095785,39.292678],[3.095783,39.29267],[3.095783,39.292667],[3.095806,39.292649],[3.095814,39.292644],[3.095819,39.292639],[3.095822,39.292635],[3.095826,39.292627],[3.095827,39.292619],[3.095824,39.29261],[3.09582,39.292603],[3.095813,39.292598],[3.095807,39.292596],[3.095751,39.292596],[3.095711,39.292596],[3.095708,39.292596],[3.095687,39.292597],[3.095669,39.2926],[3.095654,39.292604],[3.09565,39.292605],[3.09565,39.292606],[3.095645,39.292608],[3.09564,39.292612],[3.095635,39.292621],[3.095635,39.292623],[3.095633,39.292633],[3.095635,39.292657],[3.095636,39.292661],[3.095637,39.292664],[3.095636,39.292668],[3.095618,39.292682],[3.095585,39.292703],[3.095571,39.292712],[3.095551,39.292722],[3.095532,39.29273],[3.095514,39.292734],[3.095495,39.292736],[3.095485,39.292737],[3.095475,39.292734],[3.095469,39.292731],[3.095458,39.292717],[3.095454,39.292709],[3.095448,39.292703],[3.09544,39.292698],[3.095428,39.292696],[3.095419,39.292695],[3.095393,39.292702],[3.095384,39.292705],[3.095374,39.292706],[3.095356,39.292703],[3.095335,39.292697],[3.095309,39.292687],[3.095269,39.292666],[3.095264,39.292663],[3.095249,39.292634],[3.095244,39.292623],[3.095239,39.292617],[3.095218,39.292602],[3.095094,39.292532],[3.095093,39.292532],[3.095078,39.292523],[3.095065,39.292518],[3.095055,39.292511],[3.095042,39.292498],[3.095041,39.292496],[3.095034,39.292487],[3.095033,39.292486],[3.095029,39.292476],[3.095026,39.292464],[3.095027,39.292451],[3.095029,39.292443],[3.095031,39.292437],[3.095045,39.292409],[3.095062,39.292383],[3.095067,39.292374],[3.095095,39.292343],[3.09511,39.292329],[3.095121,39.292321],[3.09515,39.292307],[3.095165,39.292301],[3.0952,39.292292],[3.095215,39.292289],[3.095305,39.292285],[3.095313,39.292285],[3.09535,39.292298],[3.095355,39.2923],[3.095364,39.292303],[3.095375,39.292306],[3.095391,39.292306],[3.095397,39.292305],[3.095412,39.292304],[3.095428,39.2923],[3.095439,39.292296],[3.095448,39.292289],[3.095453,39.292283],[3.095455,39.292281],[3.095469,39.292254],[3.095475,39.292238],[3.095481,39.292228],[3.095508,39.292199],[3.095517,39.292191],[3.095595,39.292143],[3.095601,39.292139],[3.095623,39.292127],[3.095646,39.292116],[3.095664,39.292109],[3.095674,39.292107],[3.095699,39.292106],[3.095715,39.292108],[3.095738,39.292106],[3.095749,39.292104],[3.095811,39.292081],[3.095832,39.292071],[3.09586,39.292056],[3.095896,39.292032],[3.095916,39.29202],[3.095956,39.29199],[3.095969,39.291979],[3.09598,39.291966],[3.096002,39.291931],[3.096023,39.291897],[3.096039,39.291869],[3.096041,39.291865],[3.096046,39.291853],[3.09605,39.291841],[3.09605,39.291833],[3.096047,39.291826],[3.096047,39.291825],[3.096043,39.291821],[3.096037,39.291817],[3.096011,39.291804],[3.09599,39.291794],[3.095971,39.291788],[3.09591,39.291759],[3.095901,39.291755],[3.095892,39.291752],[3.095865,39.291746],[3.095849,39.291743],[3.095843,39.291741],[3.095813,39.291712],[3.095809,39.291708],[3.095778,39.291695],[3.095769,39.291691],[3.095756,39.291683],[3.095748,39.291675],[3.095743,39.291666],[3.095739,39.291654],[3.095738,39.291632],[3.095739,39.291616],[3.095743,39.291605],[3.095759,39.291577],[3.095767,39.291565],[3.095774,39.291549],[3.095781,39.291523],[3.095786,39.291483],[3.095787,39.291474],[3.095767,39.291399],[3.095764,39.291388],[3.095762,39.291336],[3.095762,39.291299],[3.095763,39.291286],[3.095762,39.291278],[3.095759,39.291272],[3.095743,39.291259],[3.095734,39.291252],[3.095729,39.291251],[3.095722,39.291251],[3.095713,39.291252],[3.095694,39.291256],[3.095683,39.29126],[3.09568,39.291262],[3.095678,39.29129],[3.095674,39.29134],[3.095673,39.291359],[3.095669,39.291379],[3.095665,39.291393],[3.095663,39.291403],[3.095667,39.291423],[3.095669,39.291428],[3.09567,39.291433],[3.09567,39.291441],[3.095667,39.291451],[3.095663,39.291456],[3.095639,39.291491],[3.095628,39.291506],[3.095619,39.291514],[3.095615,39.29152],[3.095598,39.291547],[3.095592,39.291559],[3.095586,39.291566],[3.095584,39.291568],[3.095579,39.291572],[3.095573,39.291574],[3.09557,39.291573],[3.095569,39.291567],[3.095565,39.291531],[3.095564,39.291516],[3.095566,39.291501],[3.095568,39.29149],[3.095568,39.29149],[3.095575,39.291463],[3.095579,39.291441],[3.095579,39.291425],[3.095577,39.291409],[3.095546,39.291321],[3.095503,39.291206],[3.095498,39.291192],[3.095482,39.291166],[3.095477,39.291159],[3.095469,39.291134],[3.095469,39.291133],[3.095449,39.291069],[3.095445,39.291056],[3.095444,39.291053],[3.095436,39.291038],[3.095416,39.29101],[3.095411,39.291005],[3.095369,39.290981],[3.095358,39.290975],[3.095342,39.290962],[3.095333,39.290953],[3.095331,39.29095],[3.095361,39.290876],[3.095364,39.290868],[3.095426,39.290801],[3.095441,39.290786],[3.09545,39.290774],[3.095456,39.290763],[3.095461,39.290739],[3.095463,39.290724],[3.095474,39.290688],[3.095481,39.290671],[3.095489,39.290657],[3.095493,39.290652],[3.095504,39.290636],[3.09551,39.29063],[3.095541,39.290613],[3.095549,39.290609],[3.095553,39.290606],[3.095559,39.29059],[3.095559,39.290584],[3.095587,39.29054],[3.095615,39.290501],[3.095625,39.290484],[3.095635,39.290473],[3.09564,39.290463],[3.095644,39.290457],[3.095646,39.290452],[3.095651,39.290442],[3.095652,39.290434],[3.095646,39.290413],[3.095634,39.290384],[3.095634,39.290384],[3.095634,39.290384],[3.095629,39.290373],[3.095627,39.29037],[3.095616,39.290355],[3.095597,39.290336],[3.095569,39.290301],[3.095555,39.290286],[3.09555,39.290278],[3.095544,39.290258],[3.095542,39.290246],[3.095543,39.29024],[3.095546,39.290236],[3.095551,39.290233],[3.095569,39.290231],[3.09557,39.290231],[3.095584,39.290232],[3.09559,39.290231],[3.095596,39.290227],[3.095596,39.290227],[3.095601,39.290221],[3.095602,39.290218],[3.095603,39.290214],[3.095602,39.290204],[3.09559,39.290177],[3.095586,39.29017],[3.095584,39.290168],[3.095571,39.290157],[3.09555,39.290138],[3.095532,39.290122],[3.09552,39.290112],[3.09551,39.290107],[3.0955,39.290103],[3.095492,39.290102],[3.095486,39.290104],[3.095481,39.290107],[3.095475,39.290123],[3.095473,39.29013],[3.095473,39.29013],[3.095469,39.290136],[3.095463,39.29014],[3.095457,39.290142],[3.095452,39.290141],[3.095441,39.290133],[3.095439,39.29013],[3.095436,39.290127],[3.095413,39.290112],[3.095383,39.290098],[3.095374,39.290092],[3.095354,39.290073],[3.095341,39.290057],[3.095324,39.290042],[3.095301,39.290025],[3.095292,39.290019],[3.095254,39.290007],[3.095235,39.290002],[3.095202,39.289988],[3.095166,39.289969],[3.095144,39.28996],[3.095137,39.289956],[3.09513,39.289948],[3.095113,39.28993],[3.095088,39.289899],[3.095088,39.289898],[3.095088,39.289898],[3.095087,39.289898],[3.095074,39.289879],[3.095067,39.289871],[3.095048,39.289858],[3.095035,39.289851],[3.095027,39.289844],[3.095023,39.289838],[3.095021,39.289829],[3.095021,39.289824],[3.095034,39.289809],[3.095035,39.289807],[3.095043,39.2898],[3.095049,39.289789],[3.095053,39.289778],[3.095053,39.289769],[3.095051,39.289764],[3.095046,39.289758],[3.095036,39.289752],[3.095027,39.28975],[3.094967,39.289747],[3.094946,39.289747],[3.094932,39.289746],[3.094922,39.289743],[3.094826,39.28969],[3.094814,39.289683],[3.094799,39.289677],[3.094789,39.289675],[3.094738,39.289676],[3.094736,39.289676],[3.094709,39.289677],[3.09469,39.289677],[3.094668,39.289673],[3.094651,39.289669],[3.094644,39.289667],[3.094632,39.289664],[3.094631,39.289664],[3.094624,39.289661],[3.094615,39.289658],[3.094571,39.289637],[3.094547,39.289625],[3.094535,39.289619],[3.094526,39.289611],[3.094524,39.289609],[3.094524,39.289609],[3.09452,39.289604],[3.094517,39.289595],[3.094507,39.289565],[3.094504,39.289552],[3.094504,39.289549],[3.094502,39.289529],[3.094503,39.289525],[3.094504,39.289505],[3.094504,39.289505],[3.094505,39.289493],[3.094507,39.289484],[3.094515,39.28947],[3.094523,39.289458],[3.094533,39.28944],[3.094533,39.289439],[3.094536,39.289431],[3.094537,39.289427],[3.09454,39.289405],[3.094539,39.289373],[3.094537,39.289355],[3.094534,39.289344],[3.094527,39.289331],[3.094516,39.289319],[3.094509,39.289313],[3.094431,39.289277],[3.09438,39.289255],[3.09437,39.28925],[3.094339,39.289225],[3.09429,39.28918],[3.094252,39.289142],[3.094238,39.289127],[3.094226,39.289117],[3.094212,39.289108],[3.094192,39.2891],[3.094175,39.289095],[3.094148,39.289091],[3.094121,39.289089],[3.094102,39.289086],[3.094093,39.289084],[3.094086,39.289079],[3.094083,39.289076],[3.094085,39.28905],[3.094086,39.289047],[3.094083,39.289044],[3.094057,39.289037],[3.094038,39.289033],[3.094024,39.289032],[3.093993,39.289036],[3.093964,39.289041],[3.093957,39.289042],[3.093922,39.289033],[3.093907,39.289029],[3.093895,39.289027],[3.093881,39.289016],[3.093841,39.28895],[3.093833,39.288937],[3.093825,39.288926],[3.093808,39.288912],[3.093772,39.288888],[3.093766,39.288884],[3.093731,39.288834],[3.093723,39.28882],[3.093716,39.288806],[3.093714,39.288801],[3.093719,39.288787],[3.093725,39.288777],[3.093727,39.288769],[3.093726,39.288762],[3.093722,39.288754],[3.093709,39.288743],[3.093687,39.288728],[3.093669,39.288718],[3.093623,39.288699],[3.093613,39.288696],[3.09358,39.288692],[3.093566,39.288691],[3.093561,39.28869],[3.093535,39.288665],[3.093522,39.28865],[3.093506,39.288636],[3.093497,39.288631],[3.093474,39.288622],[3.093458,39.288617],[3.093451,39.288614],[3.093433,39.288596],[3.093425,39.288587],[3.093418,39.288582],[3.093404,39.288576],[3.093398,39.288574],[3.093358,39.28858],[3.093345,39.288583],[3.093334,39.288584],[3.093324,39.288582],[3.093318,39.288579],[3.093305,39.288566],[3.093291,39.288546],[3.093277,39.28853],[3.093268,39.288523],[3.093261,39.288519],[3.093254,39.288517],[3.093236,39.288519],[3.093214,39.288525],[3.093199,39.288527],[3.093171,39.288536],[3.093161,39.28854],[3.093135,39.288545],[3.093128,39.288545],[3.093103,39.288557],[3.093086,39.288567],[3.093031,39.288592],[3.092991,39.288607],[3.092976,39.288612],[3.092968,39.288617],[3.092962,39.288622],[3.092957,39.288634],[3.092955,39.288643],[3.092956,39.288652],[3.092964,39.288669],[3.092982,39.288695],[3.09299,39.288705],[3.092993,39.288713],[3.092994,39.28872],[3.092995,39.288722],[3.092992,39.288732],[3.09298,39.288754],[3.092971,39.288767],[3.092954,39.288784],[3.092946,39.288791],[3.092857,39.288835],[3.092834,39.288846],[3.092707,39.288892],[3.092684,39.2889],[3.092655,39.288913],[3.092641,39.288921],[3.092578,39.288944],[3.092563,39.288949],[3.09253,39.288966],[3.092515,39.288975],[3.092509,39.28898],[3.092506,39.288986],[3.092504,39.288998],[3.092506,39.289013],[3.092512,39.289031],[3.092514,39.289041],[3.092513,39.28905],[3.092509,39.289058],[3.092504,39.289063],[3.092496,39.289067],[3.092482,39.28907],[3.092472,39.28907],[3.092466,39.289069],[3.092435,39.289046],[3.09243,39.289042],[3.092404,39.289034],[3.092394,39.289032],[3.092385,39.289028],[3.092375,39.28902],[3.092366,39.289008],[3.092348,39.288991],[3.092328,39.288976],[3.09232,39.28897],[3.092302,39.28894],[3.092293,39.288923],[3.092286,39.288913],[3.092277,39.288905],[3.092251,39.28889],[3.092238,39.288883],[3.092222,39.288878],[3.092207,39.288876],[3.092196,39.288876],[3.092187,39.288878],[3.092111,39.288918],[3.092081,39.288934],[3.092048,39.288956],[3.092038,39.288962],[3.092028,39.288965],[3.092011,39.288967],[3.091993,39.288966],[3.091959,39.28896],[3.091943,39.288956],[3.091933,39.288952],[3.091921,39.288944],[3.091908,39.28893],[3.091892,39.288917],[3.091877,39.288908],[3.091865,39.288903],[3.091855,39.2889],[3.091847,39.2889],[3.091841,39.288902],[3.091824,39.288917],[3.091819,39.288923],[3.0918,39.288934],[3.091778,39.288944],[3.091767,39.288948],[3.091747,39.288951],[3.091721,39.288952],[3.091692,39.288955],[3.091666,39.28896],[3.091642,39.288963],[3.091626,39.288963],[3.091619,39.288964],[3.091583,39.288984],[3.091565,39.288995],[3.091553,39.289004],[3.09155,39.289008],[3.091545,39.289047],[3.091545,39.289058],[3.091544,39.289061],[3.091522,39.289068],[3.091499,39.289072],[3.091485,39.289077],[3.091478,39.289078],[3.091458,39.289073],[3.09145,39.289071],[3.09145,39.289071],[3.091449,39.289071],[3.09144,39.289064],[3.091434,39.289057],[3.09143,39.289047],[3.091429,39.289037],[3.091429,39.289035],[3.091429,39.289034],[3.09143,39.289026],[3.091432,39.289023],[3.091433,39.289021],[3.091436,39.289013],[3.091437,39.28901],[3.091438,39.289004],[3.091437,39.288995],[3.091433,39.288987],[3.091427,39.288981],[3.091417,39.288974],[3.091395,39.288966],[3.091378,39.288962],[3.091374,39.288961],[3.091372,39.28896],[3.091367,39.288958],[3.091364,39.288955],[3.091363,39.288931],[3.091363,39.288912],[3.091362,39.288905],[3.091361,39.288864],[3.091361,39.288854],[3.091359,39.288848],[3.091354,39.288842],[3.091348,39.288839],[3.091339,39.288837],[3.091332,39.288838],[3.091286,39.288858],[3.091222,39.28889],[3.091217,39.288892],[3.091184,39.28895],[3.091174,39.288969],[3.091165,39.288982],[3.091153,39.289008],[3.091142,39.289026],[3.09112,39.289055],[3.091109,39.289067],[3.091054,39.289112],[3.091027,39.289132],[3.091015,39.289143],[3.090998,39.289154],[3.090985,39.28916],[3.090958,39.289181],[3.090945,39.289191],[3.090918,39.289208],[3.090908,39.289213],[3.090888,39.289231],[3.090871,39.289249],[3.090853,39.289264],[3.090842,39.289272],[3.090831,39.289276],[3.090823,39.289278],[3.090801,39.289277],[3.090754,39.28927],[3.090716,39.289267],[3.090701,39.289264],[3.090686,39.289259],[3.090678,39.289255],[3.090646,39.289223],[3.09064,39.289216],[3.090635,39.289213],[3.090599,39.289207],[3.09057,39.289203],[3.090508,39.289201],[3.090457,39.289201],[3.090448,39.289202],[3.090403,39.289217],[3.090371,39.28923],[3.090344,39.289239],[3.090342,39.289237],[3.090308,39.289205],[3.090285,39.289184],[3.090263,39.289163],[3.090255,39.289154],[3.090245,39.289143],[3.090237,39.289134],[3.090229,39.289125],[3.090224,39.289118],[3.090219,39.289111],[3.090215,39.289103],[3.09021,39.289096],[3.090208,39.289091],[3.090205,39.289083],[3.090202,39.289076],[3.090199,39.289068],[3.090197,39.289061],[3.090194,39.289051],[3.090192,39.28904],[3.09019,39.289028],[3.090188,39.289012],[3.090184,39.288988],[3.090183,39.288981],[3.090181,39.288974],[3.09018,39.288968],[3.090175,39.288947],[3.090174,39.288944],[3.090174,39.288939],[3.090175,39.288934],[3.090176,39.288931],[3.090177,39.288927],[3.090179,39.288924],[3.090183,39.288917],[3.090201,39.288888],[3.090211,39.288879],[3.090238,39.288864],[3.090259,39.288852],[3.090263,39.28885],[3.090271,39.288846],[3.090283,39.288843],[3.090302,39.288841],[3.090321,39.288842],[3.090348,39.288846],[3.090373,39.288852],[3.090398,39.28886],[3.090411,39.288864],[3.090474,39.288868],[3.090486,39.288868],[3.090496,39.288866],[3.090508,39.288861],[3.090515,39.288857],[3.090542,39.288818],[3.090547,39.28881],[3.090552,39.288803],[3.090556,39.288792],[3.090558,39.288781],[3.090557,39.288776],[3.090522,39.288738],[3.090516,39.288732],[3.090516,39.288731],[3.09051,39.288728],[3.090495,39.288726],[3.090487,39.288724],[3.090473,39.288724],[3.090464,39.288722],[3.090458,39.288718],[3.090453,39.288712],[3.090452,39.28871],[3.090451,39.288705],[3.090452,39.288696],[3.090463,39.288672],[3.090471,39.288659],[3.090478,39.288651],[3.090486,39.288645],[3.090499,39.28864],[3.090513,39.288637],[3.090539,39.288635],[3.090541,39.288635],[3.090556,39.288634],[3.090578,39.288634],[3.090594,39.288632],[3.090603,39.28863],[3.090625,39.288617],[3.090663,39.288589],[3.090711,39.288558],[3.090722,39.288551],[3.090747,39.288539],[3.090758,39.288535],[3.090811,39.288527],[3.090823,39.288526],[3.090836,39.288522],[3.090854,39.288512],[3.090867,39.288503],[3.09087,39.2885],[3.090875,39.288495],[3.09088,39.288487],[3.090882,39.288479],[3.09088,39.288468],[3.090875,39.288458],[3.090865,39.288445],[3.090855,39.288436],[3.090848,39.288431],[3.090827,39.288425],[3.090827,39.288425],[3.090807,39.288421],[3.090805,39.288421],[3.090797,39.288419],[3.090788,39.288412],[3.090777,39.2884],[3.090772,39.288391],[3.090769,39.28838],[3.090769,39.288371],[3.090772,39.288364],[3.090778,39.288357],[3.090786,39.288352],[3.090792,39.288349],[3.090812,39.288349],[3.090833,39.288348],[3.090846,39.288348],[3.09093,39.288335],[3.09094,39.288333],[3.090962,39.288323],[3.090979,39.288314],[3.090997,39.288306],[3.091004,39.288302],[3.091008,39.288298],[3.091009,39.288297],[3.091013,39.288285],[3.091013,39.288275],[3.091011,39.288268],[3.091006,39.28826],[3.091002,39.288256],[3.090902,39.288234],[3.090866,39.288227],[3.090824,39.288216],[3.090817,39.288214],[3.090815,39.288213],[3.090813,39.288213],[3.090811,39.288212],[3.090789,39.288209],[3.09076,39.288205],[3.090741,39.288203],[3.09073,39.2882],[3.090723,39.288197],[3.090719,39.288192],[3.090718,39.288189],[3.090717,39.288188],[3.090719,39.288182],[3.090724,39.288178],[3.090747,39.288169],[3.090778,39.288161],[3.090788,39.288157],[3.090805,39.288147],[3.090814,39.288139],[3.090835,39.288129],[3.090914,39.288097],[3.090936,39.288088],[3.09096,39.288081],[3.090977,39.288077],[3.091011,39.288074],[3.091032,39.288074],[3.091051,39.288076],[3.091067,39.28808],[3.091114,39.288084],[3.091125,39.288084],[3.091171,39.288095],[3.091179,39.288098],[3.091218,39.288109],[3.09123,39.288112],[3.091302,39.288116],[3.091316,39.288117],[3.091326,39.288115],[3.091337,39.288111],[3.091345,39.288106],[3.091345,39.288103],[3.091352,39.288098],[3.091352,39.288097],[3.091354,39.288093],[3.091349,39.288069],[3.091345,39.288059],[3.091317,39.288016],[3.091306,39.288001],[3.091303,39.287996],[3.091304,39.287912],[3.091305,39.287875],[3.091305,39.287859],[3.091306,39.28785],[3.091311,39.287839],[3.091314,39.287836],[3.091404,39.287806],[3.091423,39.287801],[3.091455,39.287796],[3.091469,39.287792],[3.091469,39.287792],[3.091478,39.287788],[3.091485,39.287783],[3.091491,39.287774],[3.091495,39.287759],[3.091495,39.287758],[3.091497,39.287736],[3.091497,39.287724],[3.091485,39.287684],[3.091475,39.287653],[3.09147,39.287637],[3.091468,39.28761],[3.091469,39.28759],[3.091471,39.287582],[3.091472,39.287573],[3.091475,39.287565],[3.091479,39.28756],[3.091482,39.287559],[3.091495,39.287551],[3.091507,39.287547],[3.091513,39.287542],[3.091513,39.287542],[3.091514,39.287541],[3.091515,39.28754],[3.091517,39.287537],[3.091518,39.287532],[3.091519,39.287526],[3.091519,39.287523],[3.091504,39.287509],[3.091492,39.287499],[3.091483,39.287492],[3.091479,39.287486],[3.091478,39.287482],[3.09148,39.287478],[3.091486,39.287475],[3.0915,39.287467],[3.091507,39.287464],[3.091512,39.287462],[3.091518,39.287458],[3.091521,39.287453],[3.091522,39.287445],[3.091519,39.287435],[3.091511,39.287424],[3.091502,39.287415],[3.091493,39.287409],[3.09147,39.2874],[3.091459,39.287397],[3.091413,39.287394],[3.091393,39.287393],[3.09138,39.287391],[3.091378,39.28739],[3.091353,39.287382],[3.091345,39.287379],[3.091337,39.287371],[3.091325,39.287354],[3.091318,39.287341],[3.091314,39.287328],[3.091314,39.287315],[3.091316,39.287304],[3.091321,39.287293],[3.091325,39.287287],[3.091343,39.287277],[3.091356,39.287271],[3.091409,39.287256],[3.091497,39.287232],[3.091517,39.287227],[3.091535,39.287225],[3.091551,39.287225],[3.091568,39.287227],[3.091588,39.287233],[3.091608,39.287241],[3.091621,39.287244],[3.091642,39.287247],[3.091663,39.287247],[3.091685,39.287244],[3.091723,39.287236],[3.091737,39.287232],[3.091759,39.287229],[3.091772,39.287226],[3.091781,39.287222],[3.091788,39.287217],[3.091795,39.287205],[3.091796,39.287202],[3.091797,39.287197],[3.091797,39.287165],[3.091797,39.287159],[3.091797,39.287151],[3.091796,39.287114],[3.091795,39.287099],[3.091791,39.287082],[3.091787,39.287073],[3.091733,39.287008],[3.091722,39.286995],[3.091666,39.286948],[3.091652,39.286937],[3.091586,39.286867],[3.091576,39.286855],[3.091506,39.286799],[3.091487,39.286785],[3.091475,39.286775],[3.091443,39.286754],[3.091408,39.28673],[3.091378,39.286712],[3.091367,39.286703],[3.091316,39.286678],[3.091304,39.286673],[3.091295,39.286667],[3.09129,39.286662],[3.091285,39.286638],[3.09128,39.286598],[3.091276,39.286575],[3.091274,39.286571],[3.091271,39.286559],[3.091266,39.28655],[3.091264,39.286548],[3.091247,39.286529],[3.09124,39.286524],[3.091179,39.286495],[3.09117,39.286491],[3.091026,39.286373],[3.09101,39.286359],[3.090988,39.286344],[3.09098,39.28634],[3.090906,39.286323],[3.090884,39.286316],[3.090855,39.286301],[3.090842,39.286295],[3.090801,39.286272],[3.090792,39.286267],[3.090777,39.286258],[3.09076,39.286247],[3.090738,39.286237],[3.090709,39.286226],[3.090699,39.286221],[3.090675,39.286202],[3.090659,39.286188],[3.090633,39.286168],[3.090621,39.286161],[3.090621,39.286161],[3.0906,39.286148],[3.090581,39.286135],[3.090571,39.286126],[3.090566,39.286118],[3.090556,39.28609],[3.090553,39.28608],[3.090553,39.28608],[3.090553,39.286079],[3.090533,39.286042],[3.090531,39.286038],[3.090516,39.286014],[3.090505,39.285991],[3.09049,39.285967],[3.090482,39.285957],[3.090437,39.285918],[3.090422,39.285906],[3.090386,39.285868],[3.090374,39.285854],[3.090356,39.285839],[3.090325,39.285817],[3.090316,39.285811],[3.090306,39.285808],[3.090297,39.285807],[3.090288,39.285806],[3.090275,39.285806],[3.090262,39.285809],[3.090252,39.285811],[3.090196,39.285823],[3.090183,39.285826],[3.090102,39.285831],[3.090047,39.285833],[3.090025,39.285833],[3.090011,39.285833],[3.08998,39.285831],[3.089971,39.285829],[3.089946,39.285819],[3.089877,39.285789],[3.089863,39.285783],[3.08979,39.285762],[3.089761,39.285755],[3.089743,39.285748],[3.089707,39.285731],[3.089694,39.285725],[3.089678,39.285722],[3.089664,39.285719],[3.089657,39.285718],[3.089608,39.285693],[3.089582,39.285679],[3.089582,39.285679],[3.08958,39.285678],[3.089533,39.285657],[3.089499,39.285643],[3.089492,39.28564],[3.089486,39.285634],[3.089482,39.285627],[3.089479,39.285585],[3.089479,39.285572],[3.089481,39.285565],[3.089486,39.285558],[3.089497,39.285549],[3.089501,39.285545],[3.089505,39.285519],[3.089507,39.285489],[3.08951,39.285472],[3.089517,39.285454],[3.089518,39.285445],[3.089515,39.28542],[3.089507,39.285392],[3.089504,39.285374],[3.089505,39.285344],[3.089503,39.285331],[3.089494,39.285304],[3.089489,39.285293],[3.089487,39.28528],[3.089487,39.285267],[3.089496,39.285236],[3.089496,39.285234],[3.0895,39.285222],[3.089509,39.285136],[3.08951,39.285125],[3.089508,39.285117],[3.089505,39.285111],[3.089481,39.285093],[3.089469,39.285084],[3.089453,39.285077],[3.089442,39.285074],[3.089418,39.285072],[3.089371,39.285068],[3.089294,39.285061],[3.089288,39.285061],[3.08926,39.285047],[3.089251,39.285041],[3.089231,39.285034],[3.089209,39.285029],[3.089195,39.285024],[3.089181,39.285017],[3.089172,39.285011],[3.089169,39.285007],[3.089168,39.284989],[3.089168,39.284984],[3.089167,39.284975],[3.089168,39.284941],[3.089169,39.284925],[3.089169,39.284921],[3.08915,39.284897],[3.089144,39.284891],[3.089141,39.284884],[3.089141,39.28488],[3.089149,39.284871],[3.089157,39.284865],[3.089161,39.28486],[3.089165,39.284843],[3.089166,39.284826],[3.089165,39.284817],[3.089162,39.284811],[3.089157,39.284806],[3.089147,39.284801],[3.08914,39.284799],[3.089104,39.284804],[3.089095,39.284805],[3.089089,39.284805],[3.08908,39.2848],[3.089059,39.284788],[3.089029,39.284771],[3.089018,39.284764],[3.089001,39.284748],[3.088976,39.284719],[3.088967,39.28471],[3.088961,39.284701],[3.088958,39.284691],[3.088959,39.284677],[3.088961,39.284666],[3.088961,39.284643],[3.088958,39.28463],[3.088959,39.284624],[3.088969,39.284607],[3.088977,39.284598],[3.089001,39.284547],[3.089005,39.284538],[3.089012,39.28453],[3.089023,39.284522],[3.089076,39.284496],[3.089096,39.284487],[3.089116,39.284475],[3.089128,39.284466],[3.089136,39.284458],[3.08914,39.284452],[3.089141,39.284422],[3.089141,39.284413],[3.089144,39.284404],[3.089144,39.284402],[3.089153,39.284386],[3.089157,39.284377],[3.089158,39.284359],[3.089157,39.284351],[3.089154,39.284345],[3.089148,39.28434],[3.089136,39.284334],[3.089123,39.284331],[3.089115,39.284331],[3.089069,39.284343],[3.089055,39.284347],[3.08894,39.284361],[3.088897,39.284364],[3.088875,39.284369],[3.088841,39.284376],[3.08884,39.284376],[3.088829,39.284378],[3.088824,39.284379],[3.088811,39.284382],[3.088807,39.284383],[3.088802,39.284383],[3.088782,39.284357],[3.088776,39.284348],[3.088754,39.284327],[3.088743,39.284318],[3.088725,39.284308],[3.088715,39.284304],[3.088654,39.284294],[3.088599,39.284286],[3.088588,39.284284],[3.088532,39.284261],[3.088517,39.284254],[3.088503,39.28425],[3.088489,39.284248],[3.088478,39.284248],[3.088459,39.284253],[3.088442,39.28426],[3.088427,39.284263],[3.088401,39.284266],[3.088368,39.284265],[3.088349,39.284264],[3.088331,39.28426],[3.088217,39.284223],[3.088209,39.28422],[3.088203,39.284218],[3.088197,39.284217],[3.088178,39.28422],[3.088171,39.284221],[3.088129,39.284233],[3.088102,39.284239],[3.088093,39.28424],[3.088044,39.284234],[3.088026,39.284231],[3.088011,39.28423],[3.088,39.284231],[3.08799,39.284235],[3.087981,39.28424],[3.087976,39.284245],[3.087973,39.284256],[3.087973,39.284271],[3.087969,39.284284],[3.087964,39.284294],[3.087954,39.284307],[3.087954,39.284307],[3.087945,39.284313],[3.087939,39.284314],[3.087934,39.284313],[3.087919,39.284312],[3.087911,39.28431],[3.087854,39.284272],[3.087846,39.284262],[3.087836,39.284251],[3.087823,39.284231],[3.087815,39.28422],[3.087804,39.284206],[3.087746,39.284114],[3.087737,39.284092],[3.087735,39.284077],[3.087732,39.284062],[3.087731,39.284049],[3.087734,39.284038],[3.087742,39.284018],[3.087752,39.284007],[3.087785,39.283982],[3.087829,39.283953],[3.08786,39.28393],[3.087871,39.283922],[3.087927,39.283868],[3.087984,39.283816],[3.087995,39.283808],[3.088014,39.283796],[3.088038,39.283786],[3.088074,39.283774],[3.088085,39.28377],[3.088117,39.283768],[3.08815,39.283768],[3.088215,39.283764],[3.088227,39.283763],[3.088229,39.283763],[3.088245,39.283757],[3.088282,39.283747],[3.088311,39.28374],[3.08833,39.283737],[3.088342,39.283733],[3.088368,39.28372],[3.08841,39.283694],[3.088421,39.283687],[3.088428,39.283679],[3.088441,39.283666],[3.08845,39.283654],[3.088461,39.283644],[3.088465,39.283639],[3.088469,39.283633],[3.088475,39.283621],[3.088478,39.283605],[3.088478,39.283597],[3.088463,39.283554],[3.088457,39.28354],[3.088454,39.283535],[3.088445,39.283521],[3.088438,39.283513],[3.088433,39.283509],[3.088424,39.283507],[3.088399,39.283507],[3.088393,39.283507],[3.088378,39.283508],[3.088364,39.283511],[3.088364,39.283511],[3.088353,39.283516],[3.088353,39.283516],[3.088347,39.28352],[3.088336,39.283528],[3.088336,39.283528],[3.088328,39.283535],[3.088328,39.283535],[3.088315,39.283542],[3.088315,39.283542],[3.088305,39.283546],[3.088305,39.283546],[3.088286,39.283548],[3.088276,39.283547],[3.088266,39.283544],[3.088254,39.283537],[3.088244,39.283529],[3.088238,39.28352],[3.088235,39.283513],[3.088237,39.28348],[3.08824,39.283457],[3.08824,39.283432],[3.088238,39.283419],[3.088232,39.2834],[3.088227,39.28339],[3.088227,39.28339],[3.088223,39.283383],[3.088208,39.283362],[3.088189,39.283339],[3.088178,39.283329],[3.088169,39.283322],[3.088151,39.283315],[3.088137,39.283311],[3.088123,39.28331],[3.088123,39.28331],[3.088073,39.283305],[3.088062,39.283304],[3.088053,39.283302],[3.088034,39.28329],[3.088023,39.283281],[3.087996,39.28325],[3.087993,39.283247],[3.087969,39.283215],[3.087962,39.283205],[3.087957,39.283201],[3.087947,39.283197],[3.087941,39.283196],[3.087941,39.283196],[3.087916,39.283202],[3.087916,39.283202],[3.087874,39.283216],[3.087874,39.283216],[3.087848,39.283223],[3.087848,39.283223],[3.087819,39.283234],[3.087819,39.283234],[3.087814,39.283236],[3.087703,39.283243],[3.087698,39.283243],[3.087691,39.283243],[3.087684,39.283242],[3.087684,39.283242],[3.08768,39.28324],[3.087677,39.283234],[3.087678,39.283225],[3.087678,39.283225],[3.087679,39.283221],[3.087683,39.283208],[3.087684,39.283199],[3.087682,39.283191],[3.087676,39.283181],[3.087664,39.28317],[3.087653,39.283162],[3.087638,39.283155],[3.087617,39.283148],[3.087617,39.283148],[3.087616,39.283148],[3.0876,39.283145],[3.08752,39.28314],[3.087494,39.283139],[3.087473,39.283137],[3.087456,39.283133],[3.087445,39.283129],[3.087436,39.283123],[3.08743,39.283117],[3.087426,39.283108],[3.087426,39.283101],[3.087432,39.283083],[3.087444,39.283059],[3.087445,39.283056],[3.087437,39.283042],[3.087431,39.283035],[3.087428,39.283027],[3.087428,39.283024],[3.087444,39.283007],[3.087453,39.283],[3.087458,39.282994],[3.087459,39.282988],[3.087458,39.282985],[3.087457,39.282981],[3.087453,39.282967],[3.087446,39.282952],[3.08744,39.282943],[3.087434,39.282937],[3.087426,39.282933],[3.087424,39.282932],[3.087419,39.28293],[3.087419,39.282931],[3.087402,39.282935],[3.087372,39.282943],[3.087372,39.282943],[3.087364,39.282945],[3.087364,39.282945],[3.087341,39.282963],[3.087334,39.282968],[3.087328,39.282972],[3.087317,39.282977],[3.087303,39.28298],[3.087296,39.282978],[3.087289,39.282975],[3.087274,39.282971],[3.08726,39.282963],[3.087252,39.282954],[3.087249,39.282949],[3.087252,39.282908],[3.087252,39.282904],[3.087253,39.2829],[3.08725,39.28289],[3.087243,39.282879],[3.087239,39.282875],[3.087173,39.282844],[3.087167,39.282841],[3.087167,39.282841],[3.087161,39.282839],[3.087154,39.282834],[3.08714,39.282823],[3.08713,39.282815],[3.087113,39.282792],[3.087102,39.282775],[3.087102,39.282775],[3.087096,39.282765],[3.08708,39.282742],[3.087077,39.28274],[3.087077,39.28274],[3.087052,39.282711],[3.087042,39.282699],[3.087038,39.282689],[3.087034,39.282671],[3.087033,39.28265],[3.087027,39.282613],[3.087023,39.282597],[3.08702,39.282555],[3.08702,39.282542],[3.087022,39.282533],[3.087043,39.282497],[3.087069,39.28246],[3.087073,39.282453],[3.087129,39.282407],[3.087138,39.2824],[3.087144,39.282397],[3.087205,39.282367],[3.087226,39.282358],[3.087239,39.282354],[3.087258,39.282351],[3.087274,39.28235],[3.087282,39.282349],[3.087284,39.282348],[3.087289,39.282345],[3.087289,39.282345],[3.087294,39.28234],[3.087296,39.282334],[3.087295,39.282327],[3.087291,39.282321],[3.087292,39.282321],[3.08729,39.282318],[3.087282,39.28231],[3.087274,39.282297],[3.087273,39.282293],[3.087271,39.282288],[3.087268,39.282283],[3.087251,39.282273],[3.087249,39.282272],[3.087242,39.282269],[3.087195,39.282263],[3.087176,39.282261],[3.087174,39.282261],[3.087171,39.282259],[3.08714,39.282215],[3.08712,39.282183],[3.087114,39.282175],[3.087076,39.282144],[3.087055,39.282129],[3.087052,39.282127],[3.087043,39.282119],[3.087036,39.28211],[3.087032,39.282099],[3.087031,39.282087],[3.087033,39.282074],[3.087036,39.282065],[3.087048,39.282036],[3.087057,39.282016],[3.087058,39.282013],[3.087091,39.28196],[3.087099,39.281948],[3.087104,39.281935],[3.087106,39.281924],[3.087105,39.281912],[3.087102,39.281904],[3.087095,39.281896],[3.087074,39.28187],[3.087074,39.28187],[3.087067,39.281861],[3.087057,39.281851],[3.08705,39.281846],[3.087042,39.281842],[3.087014,39.28184],[3.087,39.281839],[3.086964,39.281845],[3.086951,39.281847],[3.086875,39.281848],[3.086875,39.281848],[3.086873,39.281849],[3.086841,39.281848],[3.086822,39.281847],[3.086806,39.281843],[3.086793,39.281839],[3.086788,39.281836],[3.086784,39.28183],[3.086782,39.281779],[3.086781,39.281772],[3.086785,39.281758],[3.086787,39.281744],[3.086787,39.28174],[3.086786,39.281726],[3.086783,39.281716],[3.086777,39.281705],[3.086769,39.281696],[3.086759,39.28169],[3.086759,39.281689],[3.086745,39.281685],[3.086731,39.281682],[3.086661,39.281679],[3.086647,39.281679],[3.086641,39.281678],[3.086577,39.281637],[3.086559,39.281625],[3.086555,39.281622],[3.086539,39.281614],[3.086532,39.281611],[3.086503,39.281608],[3.086451,39.281604],[3.086432,39.281603],[3.086398,39.281596],[3.086387,39.281594],[3.08637,39.28159],[3.086365,39.281588],[3.086339,39.281549],[3.086339,39.281549],[3.086328,39.281532],[3.086321,39.281522],[3.08631,39.28151],[3.086297,39.2815],[3.08628,39.281491],[3.086256,39.281474],[3.086244,39.281464],[3.086227,39.281443],[3.086211,39.281419],[3.08619,39.281392],[3.086166,39.281366],[3.086149,39.281351],[3.086131,39.281338],[3.086119,39.281331],[3.086079,39.281317],[3.086071,39.281314],[3.085954,39.281235],[3.085912,39.281206],[3.085854,39.281161],[3.085816,39.281133],[3.085769,39.281102],[3.085755,39.281094],[3.085743,39.281084],[3.085722,39.281059],[3.085711,39.281045],[3.085696,39.281006],[3.085691,39.28099],[3.085681,39.280971],[3.08566,39.280942],[3.085647,39.28092],[3.085637,39.280906],[3.085624,39.280894],[3.085606,39.280881],[3.085597,39.280876],[3.085543,39.28086],[3.08552,39.280854],[3.085501,39.280852],[3.085448,39.28085],[3.085424,39.28085],[3.085408,39.280849],[3.0854,39.280847],[3.08539,39.280842],[3.085388,39.28084],[3.085391,39.280827],[3.085395,39.280819],[3.085395,39.280814],[3.085392,39.280807],[3.08538,39.280797],[3.085352,39.28078],[3.085342,39.280774],[3.085331,39.280771],[3.085318,39.280769],[3.085304,39.280771],[3.085284,39.280776],[3.085266,39.280778],[3.08525,39.280778],[3.085232,39.280776],[3.085224,39.280774],[3.08518,39.280744],[3.085158,39.280728],[3.085134,39.280713],[3.085118,39.280705],[3.085108,39.280701],[3.08508,39.280698],[3.085035,39.280696],[3.085019,39.280696],[3.085007,39.280698],[3.084977,39.280709],[3.084963,39.280715],[3.084961,39.280716],[3.084951,39.280723],[3.084947,39.280726],[3.084942,39.28075],[3.084937,39.280831],[3.084936,39.280836],[3.08483,39.280964],[3.084801,39.280991],[3.084797,39.280995],[3.084797,39.280995],[3.084782,39.281006],[3.084782,39.281006],[3.084744,39.281017],[3.084741,39.281018],[3.084731,39.281018],[3.084645,39.281008],[3.084627,39.281006],[3.084603,39.281006],[3.084579,39.281005],[3.084553,39.281001],[3.084522,39.280991],[3.084495,39.280978],[3.084485,39.280971],[3.084468,39.280955],[3.084452,39.280937],[3.08444,39.280923],[3.08443,39.280914],[3.084424,39.280904],[3.084398,39.280864],[3.084394,39.280848],[3.084392,39.280829],[3.084393,39.280809],[3.084398,39.280784],[3.084404,39.280766],[3.084411,39.280752],[3.084445,39.280634],[3.084446,39.280631],[3.084453,39.280621],[3.084473,39.280614],[3.084477,39.280608],[3.084507,39.280584],[3.084512,39.28058],[3.084519,39.280575],[3.084533,39.280557],[3.08454,39.280545],[3.084556,39.280527],[3.084571,39.280507],[3.084576,39.280497],[3.084582,39.280487],[3.084587,39.280475],[3.084588,39.280467],[3.084579,39.280428],[3.084577,39.280421],[3.084575,39.280414],[3.084573,39.280406],[3.084569,39.280399],[3.084566,39.280395],[3.084554,39.280392],[3.084552,39.280392],[3.084547,39.280391],[3.084541,39.280393],[3.084524,39.280407],[3.084518,39.280414],[3.084512,39.280418],[3.084505,39.28042],[3.084501,39.280419],[3.084459,39.280348],[3.084456,39.280343],[3.084452,39.280335],[3.084449,39.280324],[3.084444,39.280317],[3.084437,39.280311],[3.084434,39.280309],[3.084428,39.280307],[3.084415,39.280304],[3.084403,39.280303],[3.08433,39.280315],[3.084314,39.280318],[3.084274,39.280319],[3.084263,39.280319],[3.084255,39.280319],[3.084191,39.28031],[3.08418,39.280308],[3.084105,39.280279],[3.084073,39.280265],[3.083979,39.280218],[3.083952,39.280203],[3.083935,39.280196],[3.083914,39.280183],[3.083889,39.280164],[3.08388,39.280156],[3.083869,39.280139],[3.083862,39.280125],[3.083854,39.280115],[3.083826,39.280089],[3.083785,39.280058],[3.083739,39.280026],[3.08372,39.280013],[3.083702,39.279999],[3.083697,39.279993],[3.083682,39.27996],[3.083675,39.27994],[3.083663,39.279916],[3.083655,39.279903],[3.083637,39.27988],[3.08363,39.279865],[3.083627,39.279852],[3.083624,39.279839],[3.083631,39.279819],[3.083644,39.279797],[3.083643,39.279796],[3.083645,39.279794],[3.083661,39.279765],[3.083668,39.279752],[3.083684,39.27972],[3.083697,39.2797],[3.0837,39.279695],[3.083707,39.279692],[3.083736,39.279677],[3.083746,39.279671],[3.083752,39.279663],[3.083761,39.279645],[3.083764,39.279634],[3.083765,39.279609],[3.083762,39.279578],[3.083761,39.279574],[3.083761,39.279571],[3.083753,39.279559],[3.083715,39.2795],[3.083703,39.279483],[3.083699,39.279478],[3.083654,39.279459],[3.083647,39.279457],[3.08364,39.279451],[3.083621,39.279436],[3.083611,39.279426],[3.083594,39.279406],[3.083593,39.279398],[3.083592,39.279387],[3.083591,39.279378],[3.083591,39.279378],[3.08359,39.279376],[3.083588,39.279362],[3.083585,39.279352],[3.083579,39.279347],[3.083579,39.279346],[3.083577,39.279344],[3.083561,39.279331],[3.083545,39.27932],[3.083518,39.279291],[3.083507,39.279281],[3.083497,39.279267],[3.083494,39.279261],[3.083493,39.27922],[3.083494,39.2792],[3.083506,39.279137],[3.083513,39.279108],[3.083518,39.279095],[3.083518,39.279091],[3.083496,39.279061],[3.083489,39.279053],[3.083484,39.279041],[3.083483,39.279034],[3.08349,39.279008],[3.083493,39.278999],[3.083495,39.278993],[3.083494,39.278985],[3.083492,39.278981],[3.08346,39.27896],[3.083448,39.278954],[3.083436,39.27895],[3.083427,39.278949],[3.083367,39.278955],[3.083348,39.278958],[3.083302,39.278959],[3.083281,39.278958],[3.083242,39.278953],[3.083229,39.278951],[3.083213,39.278944],[3.083201,39.278937],[3.083189,39.278933],[3.083168,39.27893],[3.083155,39.278929],[3.083131,39.278933],[3.083124,39.278934],[3.083066,39.278925],[3.083046,39.278922],[3.083005,39.278909],[3.082983,39.278901],[3.082966,39.278897],[3.082939,39.278893],[3.082899,39.278892],[3.082812,39.278893],[3.082789,39.278894],[3.082775,39.278893],[3.082732,39.278883],[3.082717,39.278879],[3.082717,39.278879],[3.082689,39.278871],[3.082678,39.278867],[3.082589,39.278813],[3.08252,39.27877],[3.082508,39.278748],[3.082506,39.278714],[3.082541,39.278671],[3.082557,39.278648],[3.082572,39.278622],[3.082593,39.278597],[3.082617,39.278584],[3.082631,39.278578],[3.082641,39.278572],[3.082646,39.278567],[3.082655,39.278547],[3.082657,39.278541],[3.082655,39.278457],[3.082655,39.27844],[3.082649,39.278417],[3.082644,39.2784],[3.082628,39.278371],[3.082618,39.278357],[3.082609,39.278347],[3.082601,39.278341],[3.082555,39.27832],[3.082535,39.278312],[3.082524,39.278307],[3.082518,39.278302],[3.082495,39.27826],[3.082486,39.278243],[3.082484,39.27824],[3.082483,39.278238],[3.082479,39.278235],[3.082479,39.278235],[3.082476,39.278233],[3.082467,39.278231],[3.08241,39.27823],[3.082338,39.278231],[3.082315,39.278231],[3.082287,39.278228],[3.082278,39.278226],[3.082198,39.278185],[3.082146,39.278157],[3.082124,39.278146],[3.082107,39.278135],[3.08209,39.278121],[3.082076,39.278106],[3.082058,39.278091],[3.08201,39.278059],[3.082001,39.278053],[3.081957,39.27801],[3.081941,39.277992],[3.081926,39.27798],[3.081905,39.277956],[3.081875,39.277914],[3.081865,39.277902],[3.081844,39.277884],[3.081827,39.277872],[3.081787,39.277834],[3.081774,39.277821],[3.081754,39.277793],[3.081727,39.277746],[3.081717,39.277727],[3.081709,39.277715],[3.081674,39.27768],[3.081662,39.27767],[3.081649,39.277661],[3.081637,39.277656],[3.081488,39.27762],[3.08139,39.277598],[3.081357,39.277591],[3.081334,39.277585],[3.081287,39.277566],[3.081257,39.277553],[3.081233,39.277541],[3.081161,39.277493],[3.081122,39.277465],[3.081098,39.27745],[3.080982,39.277391],[3.080952,39.277376],[3.080909,39.277351],[3.080893,39.277341],[3.080868,39.277328],[3.080853,39.277323],[3.080792,39.277288],[3.080761,39.277269],[3.08071,39.277242],[3.080681,39.277228],[3.080652,39.277217],[3.080637,39.27721],[3.080589,39.277178],[3.080548,39.277147],[3.080544,39.277143],[3.080533,39.277136],[3.080515,39.277134],[3.08051,39.277133],[3.08048,39.277102],[3.08048,39.277102],[3.080478,39.2771],[3.08047,39.277091],[3.08045,39.277053],[3.08043,39.277007],[3.080422,39.276992],[3.080409,39.276974],[3.080391,39.276955],[3.080379,39.276945],[3.080348,39.276907],[3.080322,39.27687],[3.080307,39.276851],[3.080303,39.276845],[3.080299,39.276824],[3.080298,39.276806],[3.080295,39.276795],[3.080291,39.276786],[3.080278,39.276772],[3.080269,39.276764],[3.080265,39.276758],[3.080263,39.276749],[3.080264,39.27674],[3.080267,39.276732],[3.08028,39.276719],[3.080299,39.276705],[3.080304,39.276702],[3.080329,39.276699],[3.080339,39.276699],[3.080345,39.276698],[3.080348,39.276695],[3.080349,39.276689],[3.08035,39.276686],[3.080351,39.276679],[3.080358,39.276622],[3.080359,39.27661],[3.080348,39.276542],[3.080337,39.276483],[3.080328,39.276421],[3.080321,39.276387],[3.080314,39.276319],[3.080308,39.276285],[3.080307,39.276259],[3.080308,39.276235],[3.080309,39.276228],[3.080331,39.276197],[3.080342,39.276185],[3.080348,39.276174],[3.080349,39.276167],[3.08035,39.276165],[3.080348,39.27615],[3.080348,39.276146],[3.080337,39.276111],[3.080333,39.276093],[3.080331,39.276084],[3.080325,39.276067],[3.080318,39.276056],[3.080311,39.276047],[3.080306,39.276044],[3.080257,39.276031],[3.08023,39.276025],[3.080223,39.276023],[3.080146,39.275977],[3.080136,39.27597],[3.080127,39.275961],[3.080126,39.275959],[3.080121,39.275953],[3.08012,39.275946],[3.080123,39.275937],[3.080129,39.275927],[3.080134,39.27592],[3.08014,39.275914],[3.080149,39.275887],[3.080155,39.275857],[3.080155,39.275853],[3.080161,39.275796],[3.080169,39.275725],[3.08017,39.275707],[3.08017,39.2757],[3.080148,39.275663],[3.080142,39.275655],[3.080137,39.275641],[3.080135,39.275626],[3.080136,39.275613],[3.080143,39.275592],[3.080195,39.275486],[3.080242,39.275386],[3.080252,39.275362],[3.080259,39.27534],[3.080261,39.275327],[3.08026,39.27532],[3.080247,39.275297],[3.080231,39.275273],[3.080221,39.275256],[3.080218,39.275247],[3.08022,39.275185],[3.080222,39.275158],[3.08022,39.275098],[3.080218,39.275073],[3.080213,39.275048],[3.080208,39.275031],[3.080194,39.275006],[3.080183,39.274989],[3.080164,39.274968],[3.08014,39.274945],[3.080128,39.274936],[3.080038,39.274885],[3.08003,39.27488],[3.080011,39.274863],[3.080003,39.274853],[3.079976,39.274832],[3.079959,39.27482],[3.079877,39.27478],[3.079811,39.274749],[3.079774,39.274734],[3.079728,39.274724],[3.079705,39.27472],[3.079649,39.274715],[3.079626,39.274711],[3.079622,39.27471],[3.079614,39.274699],[3.079614,39.274699],[3.079611,39.274691],[3.079608,39.274688],[3.079573,39.274677],[3.079561,39.274675],[3.079487,39.27464],[3.079469,39.274631],[3.079446,39.274622],[3.079433,39.274619],[3.079414,39.274618],[3.079373,39.274616],[3.07935,39.274616],[3.07933,39.274613],[3.079318,39.274611],[3.079203,39.274555],[3.079187,39.274547],[3.07917,39.274541],[3.079138,39.274535],[3.079123,39.274533],[3.07906,39.274535],[3.079052,39.274535],[3.079026,39.27453],[3.078962,39.27451],[3.07895,39.274506],[3.078943,39.274503],[3.07893,39.274489],[3.078916,39.274467],[3.078915,39.274466],[3.078799,39.274415],[3.078796,39.274414],[3.07876,39.274407],[3.078744,39.274405],[3.078734,39.274402],[3.078681,39.274363],[3.078661,39.274348],[3.078644,39.274335],[3.078619,39.27432],[3.078614,39.274317],[3.078601,39.27431],[3.078557,39.274276],[3.078551,39.27427],[3.078531,39.274233],[3.078531,39.274233],[3.078525,39.27422],[3.078519,39.274212],[3.078456,39.27416],[3.078412,39.274127],[3.078401,39.274117],[3.078384,39.274107],[3.078366,39.274099],[3.078351,39.274096],[3.078343,39.274095],[3.078315,39.2741],[3.078313,39.2741],[3.078293,39.274105],[3.078274,39.274108],[3.078246,39.274109],[3.078223,39.274108],[3.078203,39.274105],[3.078167,39.274095],[3.078126,39.274082],[3.078089,39.274071],[3.077943,39.27404],[3.077919,39.274035],[3.077856,39.274016],[3.07782,39.274004],[3.0778,39.273998],[3.077766,39.273984],[3.077748,39.273976],[3.077733,39.273971],[3.077713,39.273967],[3.077672,39.273965],[3.077651,39.273962],[3.077634,39.273958],[3.077592,39.273942],[3.077557,39.273925],[3.07749,39.27389],[3.077437,39.273858],[3.077419,39.273849],[3.077412,39.273843],[3.077342,39.273749],[3.077331,39.273734],[3.077325,39.273723],[3.077324,39.273715],[3.077324,39.27371],[3.077325,39.273708],[3.077333,39.273694],[3.077347,39.27368],[3.077356,39.273672],[3.077394,39.273624],[3.077408,39.273604],[3.077414,39.273592],[3.077416,39.273589],[3.077418,39.27358],[3.077418,39.273579],[3.077418,39.273574],[3.077418,39.27357],[3.077417,39.273567],[3.077415,39.273559],[3.077409,39.273551],[3.077395,39.27354],[3.077388,39.273536],[3.077383,39.273535],[3.077378,39.273536],[3.077362,39.273534],[3.077336,39.27353],[3.077303,39.273522],[3.077284,39.273517],[3.077265,39.273514],[3.07725,39.273513],[3.077239,39.273515],[3.077232,39.273518],[3.077228,39.273522],[3.077225,39.273531],[3.077226,39.273558],[3.077228,39.273576],[3.077228,39.273584],[3.077226,39.27359],[3.077224,39.273593],[3.077219,39.273593],[3.077214,39.273592],[3.077208,39.273587],[3.0772,39.27358],[3.077177,39.273542],[3.07717,39.273529],[3.077161,39.273501],[3.077158,39.273485],[3.077158,39.27347],[3.077158,39.273469],[3.077171,39.27341],[3.077173,39.273402],[3.077217,39.273339],[3.07723,39.273323],[3.077231,39.273321],[3.077232,39.273319],[3.077237,39.27331],[3.07724,39.273301],[3.077239,39.273292],[3.077235,39.273284],[3.077229,39.273277],[3.077213,39.273268],[3.077187,39.273252],[3.077181,39.273249],[3.077171,39.273243],[3.07716,39.273239],[3.077155,39.273238],[3.077146,39.273237],[3.077137,39.273237],[3.077109,39.273246],[3.077105,39.273247],[3.077102,39.273248],[3.077068,39.273261],[3.077058,39.273264],[3.077011,39.273269],[3.07699,39.273269],[3.076976,39.273269],[3.076951,39.273262],[3.076893,39.273241],[3.076825,39.273214],[3.076805,39.273206],[3.076749,39.273173],[3.076723,39.273156],[3.0767,39.273139],[3.076683,39.273123],[3.076681,39.273121],[3.07668,39.273119],[3.076666,39.273103],[3.076652,39.273082],[3.076632,39.273043],[3.076631,39.273039],[3.076626,39.273028],[3.076626,39.273027],[3.076599,39.272986],[3.076586,39.272968],[3.076579,39.272955],[3.076572,39.272929],[3.076567,39.272902],[3.076566,39.272881],[3.076568,39.272863],[3.076566,39.272837],[3.076566,39.272836],[3.076566,39.272836],[3.076562,39.272818],[3.076551,39.272788],[3.076533,39.272749],[3.076526,39.272731],[3.07652,39.27272],[3.076517,39.272715],[3.076509,39.272706],[3.0765,39.272699],[3.07649,39.272694],[3.076476,39.272691],[3.076475,39.272691],[3.076429,39.27269],[3.07642,39.27269],[3.076388,39.272682],[3.076377,39.272679],[3.076344,39.272668],[3.076339,39.272667],[3.076297,39.272651],[3.076271,39.272639],[3.076254,39.272629],[3.076235,39.272615],[3.076224,39.272604],[3.076183,39.272547],[3.076158,39.272509],[3.076148,39.272495],[3.076142,39.272483],[3.07614,39.272476],[3.076147,39.272431],[3.076151,39.272417],[3.076151,39.2724],[3.076149,39.272386],[3.076146,39.272379],[3.076143,39.272371],[3.076133,39.272354],[3.076121,39.272341],[3.0761,39.272323],[3.076089,39.272313],[3.076069,39.272298],[3.076062,39.272291],[3.076045,39.27226],[3.07602,39.272203],[3.076013,39.272187],[3.076008,39.272159],[3.076006,39.272139],[3.076007,39.272119],[3.076016,39.272076],[3.076019,39.272065],[3.076029,39.272049],[3.076043,39.272026],[3.076053,39.272012],[3.076059,39.271999],[3.076066,39.271972],[3.076068,39.27195],[3.076069,39.271945],[3.076069,39.271917],[3.076066,39.271893],[3.076065,39.271883],[3.076062,39.271867],[3.076058,39.271857],[3.07605,39.271847],[3.07604,39.271839],[3.076028,39.271833],[3.076026,39.271832],[3.076017,39.271829],[3.075991,39.271826],[3.075988,39.271826],[3.075973,39.271826],[3.075962,39.271827],[3.075935,39.271837],[3.075922,39.271843],[3.075912,39.271846],[3.075904,39.271846],[3.075896,39.271844],[3.075893,39.271842],[3.075891,39.271661],[3.075903,39.271466],[3.075908,39.271407],[3.07591,39.27134],[3.075898,39.271298],[3.075894,39.271277],[3.075888,39.271262],[3.075882,39.271253],[3.075874,39.271246],[3.07587,39.271244],[3.075834,39.271247],[3.075826,39.271248],[3.075816,39.271247],[3.075803,39.271242],[3.075739,39.271201],[3.075719,39.271187],[3.075574,39.271059],[3.075523,39.271013],[3.075517,39.271007],[3.075505,39.270996],[3.075425,39.270941],[3.075371,39.270906],[3.075352,39.270892],[3.075345,39.270887],[3.075288,39.270839],[3.075255,39.27081],[3.075241,39.270799],[3.075133,39.270736],[3.075125,39.270732],[3.075113,39.270725],[3.075091,39.270716],[3.074996,39.270662],[3.074952,39.270636],[3.074935,39.270625],[3.074931,39.270621],[3.074915,39.270608],[3.074904,39.270595],[3.074837,39.270543],[3.07475,39.270475],[3.074693,39.270432],[3.074671,39.270416],[3.074626,39.270378],[3.074602,39.270356],[3.074576,39.270327],[3.074562,39.270309],[3.074491,39.270237],[3.074486,39.270232],[3.074466,39.270213],[3.074435,39.270178],[3.074408,39.270144],[3.0744,39.270135],[3.074378,39.270119],[3.074371,39.270115],[3.074344,39.270099],[3.074319,39.270081],[3.074294,39.270067],[3.074271,39.270057],[3.074246,39.270042],[3.074213,39.270019],[3.074196,39.270005],[3.07418,39.269988],[3.074151,39.269948],[3.074144,39.269936],[3.074138,39.269918],[3.074107,39.269818],[3.074101,39.2698],[3.074091,39.269777],[3.074075,39.269752],[3.074061,39.26973],[3.07405,39.269715],[3.073992,39.269653],[3.073977,39.269638],[3.073936,39.269607],[3.073917,39.269595],[3.073895,39.269576],[3.073883,39.269562],[3.073876,39.269552],[3.073873,39.269545],[3.073875,39.269516],[3.073882,39.269476],[3.073886,39.269439],[3.073887,39.269399],[3.073888,39.269379],[3.073888,39.269369],[3.073885,39.26936],[3.07388,39.269354],[3.073841,39.269334],[3.073834,39.269331],[3.07382,39.269325],[3.073809,39.269321],[3.073787,39.269319],[3.073766,39.269318],[3.073747,39.26932],[3.073733,39.269324],[3.073724,39.269328],[3.073716,39.269332],[3.073708,39.269334],[3.0737,39.269334],[3.073684,39.269328],[3.073672,39.269322],[3.073669,39.269319],[3.073669,39.269315],[3.073665,39.269287],[3.073665,39.269273],[3.073663,39.269263],[3.073636,39.269216],[3.073635,39.269214],[3.073624,39.269197],[3.073617,39.269189],[3.073595,39.269173],[3.07358,39.269164],[3.073561,39.269148],[3.073548,39.269134],[3.073531,39.269107],[3.073524,39.269093],[3.073515,39.269082],[3.073504,39.269072],[3.073477,39.269055],[3.073456,39.269044],[3.073439,39.269037],[3.073424,39.269034],[3.073412,39.269033],[3.073383,39.269037],[3.073362,39.269042],[3.073351,39.269043],[3.073343,39.269043],[3.073338,39.26904],[3.073331,39.269032],[3.073325,39.269017],[3.073325,39.269016],[3.073322,39.269002],[3.073322,39.268993],[3.073328,39.268972],[3.073338,39.268953],[3.073342,39.268939],[3.073343,39.268925],[3.073341,39.268914],[3.073335,39.268899],[3.07332,39.268878],[3.073299,39.268848],[3.073283,39.268826],[3.073277,39.268821],[3.073274,39.268818],[3.073266,39.268812],[3.073258,39.268809],[3.073258,39.268809],[3.073232,39.268807],[3.073215,39.268808],[3.073204,39.268807],[3.073191,39.268803],[3.073178,39.268795],[3.073166,39.268784],[3.073154,39.26877],[3.073152,39.268768],[3.073143,39.26876],[3.073141,39.268759],[3.073134,39.268755],[3.073133,39.268755],[3.073122,39.268752],[3.073108,39.268752],[3.073106,39.268752],[3.073039,39.268761],[3.073002,39.268768],[3.072985,39.268772],[3.072974,39.268773],[3.072966,39.268771],[3.072955,39.268765],[3.072945,39.268757],[3.072939,39.26875],[3.072936,39.26874],[3.072936,39.268731],[3.072937,39.268729],[3.072942,39.268714],[3.072954,39.268691],[3.07296,39.268677],[3.072962,39.268666],[3.072962,39.268663],[3.072961,39.268655],[3.072957,39.268644],[3.072947,39.268631],[3.072945,39.268628],[3.072943,39.268627],[3.07293,39.268614],[3.072917,39.268605],[3.072898,39.268595],[3.072891,39.268592],[3.072877,39.268587],[3.072877,39.268587],[3.072853,39.268581],[3.072836,39.268579],[3.072797,39.268578],[3.072778,39.268579],[3.072707,39.268591],[3.072694,39.268594],[3.072663,39.2686],[3.072634,39.268604],[3.072622,39.268606],[3.072602,39.26861],[3.072587,39.268615],[3.072536,39.268643],[3.072522,39.268651],[3.072515,39.268655],[3.072497,39.268664],[3.072482,39.268668],[3.072465,39.268671],[3.072452,39.268672],[3.072415,39.268665],[3.0724,39.268662],[3.072387,39.268657],[3.072365,39.268642],[3.07232,39.268606],[3.072317,39.268603],[3.072303,39.26859],[3.072266,39.268564],[3.072247,39.268552],[3.072234,39.268541],[3.072227,39.268533],[3.072216,39.268521],[3.07221,39.268512],[3.072194,39.268489],[3.072185,39.268478],[3.072172,39.268466],[3.072163,39.268461],[3.07215,39.268456],[3.072122,39.268446],[3.072114,39.268444],[3.072109,39.268442],[3.072106,39.268441],[3.072056,39.268435],[3.072028,39.268434],[3.072019,39.268435],[3.071968,39.268453],[3.07195,39.26846],[3.071932,39.268465],[3.071923,39.268466],[3.071919,39.268465],[3.071915,39.268459],[3.071914,39.268454],[3.071921,39.268438],[3.071929,39.268424],[3.071933,39.268412],[3.071935,39.268401],[3.071934,39.268395],[3.071934,39.268392],[3.071929,39.268384],[3.071923,39.268377],[3.071912,39.268371],[3.071902,39.268367],[3.071897,39.268366],[3.071879,39.268362],[3.071861,39.268361],[3.071829,39.268364],[3.071817,39.268367],[3.071803,39.268372],[3.071736,39.268398],[3.071709,39.268409],[3.071688,39.268416],[3.071674,39.268419],[3.071633,39.26842],[3.071606,39.268421],[3.071578,39.268422],[3.071566,39.268423],[3.071541,39.26843],[3.071529,39.268436],[3.071514,39.268439],[3.071503,39.26844],[3.071488,39.268437],[3.071464,39.26843],[3.071436,39.268417],[3.071415,39.268406],[3.071401,39.268396],[3.071388,39.268384],[3.071384,39.268379],[3.07138,39.26827],[3.07138,39.268256],[3.071378,39.268246],[3.071362,39.268216],[3.071354,39.268204],[3.07135,39.268193],[3.071349,39.268184],[3.071353,39.268166],[3.071358,39.268155],[3.071359,39.268148],[3.071357,39.268141],[3.07135,39.268133],[3.071338,39.268125],[3.071321,39.268117],[3.071288,39.268108],[3.071277,39.268105],[3.071202,39.26807],[3.071184,39.268062],[3.071165,39.268055],[3.071144,39.26805],[3.071118,39.268047],[3.07111,39.268047],[3.071034,39.268046],[3.070978,39.268046],[3.070946,39.268047],[3.070918,39.268047],[3.070882,39.268048],[3.070876,39.268049],[3.070863,39.26805],[3.070826,39.268059],[3.07082,39.26806],[3.070813,39.268062],[3.070802,39.268066],[3.070782,39.26807],[3.070764,39.268071],[3.070754,39.268071],[3.070704,39.268055],[3.070669,39.268042],[3.070595,39.268021],[3.07056,39.268012],[3.070552,39.26801],[3.070495,39.267965],[3.070479,39.267951],[3.070468,39.267944],[3.070433,39.26793],[3.070406,39.267919],[3.070384,39.267911],[3.070366,39.267906],[3.070355,39.267905],[3.070328,39.267907],[3.070308,39.267911],[3.070292,39.267912],[3.07029,39.267912],[3.070287,39.267912],[3.070279,39.267914],[3.070248,39.267927],[3.070247,39.267928],[3.070225,39.267939],[3.070202,39.267948],[3.070184,39.267954],[3.070169,39.267956],[3.070155,39.267956],[3.070153,39.267955],[3.070127,39.267951],[3.070089,39.26794],[3.07007,39.267934],[3.070053,39.267926],[3.070018,39.267901],[3.069995,39.267883],[3.069967,39.267856],[3.069945,39.26783],[3.069917,39.267804],[3.069887,39.267779],[3.069857,39.267758],[3.069841,39.267748],[3.069793,39.267726],[3.069774,39.267719],[3.069742,39.267701],[3.06972,39.267687],[3.06971,39.267681],[3.069656,39.267666],[3.069639,39.267662],[3.069612,39.267651],[3.069539,39.267629],[3.069517,39.267623],[3.069491,39.267612],[3.069475,39.267604],[3.069428,39.267571],[3.069362,39.267518],[3.069335,39.267497],[3.069327,39.26749],[3.069297,39.267444],[3.069292,39.267437],[3.069286,39.267431],[3.069271,39.267424],[3.06926,39.26742],[3.069231,39.267418],[3.069209,39.267418],[3.069175,39.267421],[3.069151,39.267425],[3.06913,39.267427],[3.069122,39.267426],[3.069087,39.267413],[3.069076,39.267407],[3.069064,39.267405],[3.069039,39.267404],[3.069009,39.267405],[3.068968,39.267408],[3.068957,39.267409],[3.06895,39.267408],[3.068935,39.267395],[3.068908,39.267367],[3.068902,39.267358],[3.068897,39.267347],[3.068897,39.267345],[3.068893,39.267314],[3.068892,39.267297],[3.068893,39.267289],[3.068906,39.267266],[3.068913,39.267256],[3.068916,39.267248],[3.068915,39.267236],[3.068914,39.267224],[3.068908,39.267201],[3.068907,39.267186],[3.068919,39.267082],[3.068926,39.267035],[3.068931,39.267011],[3.068936,39.266959],[3.068937,39.266942],[3.068939,39.266928],[3.068945,39.266931],[3.068954,39.266935],[3.069871,39.26622],[3.070311,39.265878],[3.077068,39.260614],[3.077668,39.260146],[3.077939,39.259935],[3.074309,39.257413],[3.05849,39.246418],[2.998909,39.223819],[2.998911,39.107142],[2.890574,39.107144],[2.890576,39.165483],[3.00934,39.257779],[2.959828,39.306581],[2.91069,39.325984],[2.829983,39.3287],[2.829966,39.335377],[2.829938,39.346534],[2.829935,39.347978],[2.829934,39.348247],[2.829934,39.34826],[2.827979,39.348122],[2.827927,39.348119],[2.826212,39.348158],[2.826121,39.34816],[2.822295,39.348249],[2.822274,39.348252],[2.822243,39.348256],[2.820887,39.348444],[2.820622,39.348481],[2.815855,39.349142],[2.813856,39.350396],[2.813666,39.350515],[2.809229,39.353298],[2.805734,39.356071],[2.80139,39.35759],[2.801308,39.357618],[2.801054,39.357707],[2.800991,39.357729],[2.797899,39.357181],[2.79787,39.357176],[2.796534,39.356938],[2.789324,39.356125],[2.789132,39.356103],[2.785242,39.355664],[2.783218,39.355436],[2.783046,39.355417],[2.756935,39.381945],[2.751707,39.385008],[2.751462,39.385151],[2.742926,39.390151],[2.730314,39.410338],[2.730307,39.412106],[2.730303,39.413123],[2.730303,39.41313],[2.730303,39.41322],[2.730303,39.413234],[2.7303,39.413234],[2.730258,39.413234],[2.730258,39.413234],[2.730174,39.413234],[2.730174,39.413234],[2.729895,39.413233],[2.727553,39.413228],[2.727356,39.413228],[2.726411,39.414957],[2.726628,39.415553],[2.72727,39.416236],[2.72677,39.417116],[2.725112,39.417807],[2.723287,39.418643],[2.722666,39.419278],[2.722663,39.419281],[2.722388,39.419562],[2.721695,39.42142],[2.721291,39.422507],[2.720645,39.423363],[2.721021,39.424987],[2.721133,39.425929],[2.721141,39.425995],[2.721265,39.427042],[2.721404,39.428241],[2.72097,39.42942],[2.720904,39.4296],[2.721366,39.429915],[2.722321,39.429999],[2.722388,39.429989],[2.723314,39.429845],[2.723364,39.429867],[2.724099,39.430199],[2.724255,39.430386],[2.724611,39.430812],[2.725038,39.431753],[2.725096,39.4327],[2.724407,39.433509],[2.723537,39.433973],[2.722764,39.43474],[2.722441,39.43506],[2.722057,39.435544],[2.72185,39.436942],[2.721892,39.438869],[2.721803,39.440747],[2.721455,39.441471],[2.720862,39.442054],[2.720052,39.442462],[2.718141,39.443194],[2.717235,39.443384],[2.716599,39.443909],[2.715775,39.444306],[2.71465,39.444447],[2.713947,39.444743],[2.713326,39.445257],[2.711841,39.44742],[2.711012,39.448432],[2.710533,39.44913],[2.71028,39.44965],[2.710122,39.44999],[2.710203,39.450207],[2.710502,39.450354],[2.7109,39.450549],[2.711622,39.450573],[2.712135,39.450672],[2.712539,39.450975],[2.712676,39.451285],[2.712546,39.452594],[2.712005,39.453359],[2.711254,39.453623],[2.710424,39.453914],[2.70941,39.454132],[2.70934,39.454147],[2.708341,39.454017],[2.707989,39.453487],[2.707605,39.453047],[2.706982,39.452891],[2.706873,39.452864],[2.706098,39.453113],[2.705512,39.453901],[2.704008,39.454822],[2.702924,39.455488],[2.702198,39.455632],[2.701481,39.455774],[2.70144,39.455782],[2.700528,39.455728],[2.70038,39.455719],[2.700279,39.455739]],[[3.077445,39.273544],[3.077455,39.273543],[3.077469,39.27354],[3.077474,39.273538],[3.077479,39.273535],[3.077479,39.273535],[3.077483,39.273531],[3.077483,39.273528],[3.077483,39.273525],[3.077482,39.27352],[3.077481,39.273518],[3.077475,39.273509],[3.077471,39.273506],[3.077464,39.273501],[3.077432,39.273479],[3.077431,39.273478],[3.077421,39.273472],[3.077415,39.273469],[3.07741,39.273468],[3.077401,39.273467],[3.077393,39.273467],[3.077389,39.273468],[3.077385,39.27347],[3.077383,39.273471],[3.077378,39.273476],[3.077375,39.27348],[3.077374,39.273484],[3.077374,39.273489],[3.077374,39.273489],[3.077376,39.273499],[3.077379,39.273505],[3.077383,39.273512],[3.077387,39.273518],[3.077389,39.27352],[3.077391,39.273522],[3.077401,39.273531],[3.077408,39.273536],[3.077415,39.273539],[3.077421,39.273542],[3.077429,39.273543],[3.077436,39.273544],[3.077445,39.273544]]]},"properties":{"featureId":"n2k-es0000518-espacio-marino-del-sur-de-mallorca-y-cabrera--zepa--estatal--01","zoneId":"n2k-es0000518-espacio-marino-del-sur-de-mallorca-y-cabrera--zepa--estatal","fuente":"natura2000","fuenteTitulo":"Red Natura 2000 (ámbito marino)","nombre":"Espacio marino del sur de Mallorca y Cabrera","proteccion":"ZEPA","competencia":"Estatal","isla":["mallorca","cabrera"],"areaKm2":400.0695,"normas":[{"titulo":" ","fecha":null,"url":null,"tipo":"creacion","origen":"ideib"}],"objectIdOrigen":6,"codigo":"ES0000518","fichaUrl":" ","planEstado":"SENSE INFORMACIÓ","motivoInclusion":"estatal-aguas-exteriores"}}]}