{"type":"FeatureCollection","features":[{"type":"Feature","geometry":{"type":"Point","coordinates":[2.702167,39.498833]},"properties":{"zoneId":"rm-reserva-marina-de-la-badia-de-palma--reserva-marina","fuente":"reservas-marinas","nombre":"Reserva Marina de la Badia de Palma","proteccion":"Reserva marina","latitudTexto":"39° 29,93' N","longitudTexto":"2° 42,13' E"}},{"type":"Feature","geometry":{"type":"Point","coordinates":[2.729173,39.412143]},"properties":{"zoneId":"rm-reserva-marina-de-la-badia-de-palma--reserva-marina","fuente":"reservas-marinas","nombre":"Reserva Marina de la Badia de Palma","proteccion":"Reserva marina","latitudTexto":"39° 24,73' N","longitudTexto":"2° 43,75' E"}},{"type":"Feature","geometry":{"type":"Point","coordinates":[2.704333,39.473833]},"properties":{"zoneId":"rm-reserva-marina-de-la-badia-de-palma--reserva-marina","fuente":"reservas-marinas","nombre":"Reserva Marina de la Badia de Palma","proteccion":"Reserva marina","latitudTexto":"39° 28,43' N","longitudTexto":"2° 42,26' E"}},{"type":"Feature","geometry":{"type":"Point","coordinates":[2.302217,39.56715]},"properties":{"zoneId":"rm-reserva-marina-de-sa-dragonera--reserva-marina","fuente":"reservas-marinas","nombre":"Reserva marina de sa Dragonera","proteccion":"Reserva marina","latitudTexto":"39° 34,03' N","longitudTexto":"2° 18,13' E"}},{"type":"Feature","geometry":{"type":"Point","coordinates":[3.441667,39.816667]},"properties":{"zoneId":"rm-reserva-marina-del-levante-de-mallorca-cala-rajada--reserva-marina-autonomica","fuente":"reservas-marinas","nombre":"Reserva Marina del Levante de Mallorca-Cala Rajada","proteccion":"Reserva marina autonòmica","latitudTexto":"39° 49,00' N","longitudTexto":"3° 26,50' E"}},{"type":"Feature","geometry":{"type":"Point","coordinates":[3.5,39.7025]},"properties":{"zoneId":"rm-reserva-marina-del-levante-de-mallorca-cala-rajada--reserva-marina-autonomica","fuente":"reservas-marinas","nombre":"Reserva Marina del Levante de Mallorca-Cala Rajada","proteccion":"Reserva marina autonòmica","latitudTexto":"39° 42,15' N","longitudTexto":"3° 30,00' E"}},{"type":"Feature","geometry":{"type":"Point","coordinates":[3.490892,39.720352]},"properties":{"zoneId":"rm-reserva-marina-del-levante-de-mallorca-cala-rajada--reserva-marina-autonomica","fuente":"reservas-marinas","nombre":"Reserva Marina del Levante de Mallorca-Cala Rajada","proteccion":"Reserva marina autonòmica","latitudTexto":"39° 43,22' N","longitudTexto":"3° 29,45' E"}},{"type":"Feature","geometry":{"type":"Point","coordinates":[3.481622,39.738513]},"properties":{"zoneId":"rm-reserva-marina-del-levante-de-mallorca-cala-rajada--reserva-marina-autonomica","fuente":"reservas-marinas","nombre":"Reserva Marina del Levante de Mallorca-Cala Rajada","proteccion":"Reserva marina autonòmica","latitudTexto":"39° 44,31' N","longitudTexto":"3° 28,90' E"}},{"type":"Feature","geometry":{"type":"Point","coordinates":[3.35,39.816667]},"properties":{"zoneId":"rm-reserva-marina-del-levante-de-mallorca-cala-rajada--reserva-marina-autonomica","fuente":"reservas-marinas","nombre":"Reserva Marina del Levante de Mallorca-Cala Rajada","proteccion":"Reserva marina autonòmica","latitudTexto":"39° 49,00' N","longitudTexto":"3° 21,00' E"}},{"type":"Feature","geometry":{"type":"Point","coordinates":[3.3975,39.816667]},"properties":{"zoneId":"rm-reserva-marina-del-levante-de-mallorca-cala-rajada--reserva-marina-autonomica","fuente":"reservas-marinas","nombre":"Reserva Marina del Levante de Mallorca-Cala Rajada","proteccion":"Reserva marina autonòmica","latitudTexto":"39° 49,00' N","longitudTexto":"3° 23,85' E"}},{"type":"Feature","geometry":{"type":"Point","coordinates":[3.115833,39.2805]},"properties":{"zoneId":"rm-reserva-marina-del-migjorn-de-mallorca--reserva-marina","fuente":"reservas-marinas","nombre":"Reserva Marina del Migjorn de Mallorca","proteccion":"Reserva marina","latitudTexto":"39° 16,83' N","longitudTexto":"3° 06,95' E"}},{"type":"Feature","geometry":{"type":"Point","coordinates":[3.126333,39.288167]},"properties":{"zoneId":"rm-reserva-marina-del-migjorn-de-mallorca--reserva-marina","fuente":"reservas-marinas","nombre":"Reserva Marina del Migjorn de Mallorca","proteccion":"Reserva marina","latitudTexto":"39° 17,29' N","longitudTexto":"3° 07,58' E"}},{"type":"Feature","geometry":{"type":"Point","coordinates":[3.173927,39.322143]},"properties":{"zoneId":"rm-reserva-marina-del-migjorn-de-mallorca--reserva-marina","fuente":"reservas-marinas","nombre":"Reserva Marina del Migjorn de Mallorca","proteccion":"Reserva marina","latitudTexto":"39° 19,33' N","longitudTexto":"3° 10,44' E"}},{"type":"Feature","geometry":{"type":"Point","coordinates":[3.058921,39.223804]},"properties":{"zoneId":"rm-reserva-marina-del-migjorn-de-mallorca--reserva-marina","fuente":"reservas-marinas","nombre":"Reserva Marina del Migjorn de Mallorca","proteccion":"Reserva marina","latitudTexto":"39° 13,43' N","longitudTexto":"3° 03,53' E"}},{"type":"Feature","geometry":{"type":"Point","coordinates":[2.918065,39.261246]},"properties":{"zoneId":"rm-reserva-marina-del-migjorn-de-mallorca--reserva-marina","fuente":"reservas-marinas","nombre":"Reserva Marina del Migjorn de Mallorca","proteccion":"Reserva marina","latitudTexto":"39° 15,68' N","longitudTexto":"2° 55,08' E"}},{"type":"Feature","geometry":{"type":"Point","coordinates":[3.126333,39.288167]},"properties":{"zoneId":"rm-reserva-integral-del-migjorn-de-mallorca--reserva-marina","fuente":"reservas-marinas","nombre":"Reserva Integral del Migjorn de Mallorca","proteccion":"Reserva marina","latitudTexto":"39° 17,30' N","longitudTexto":"3° 07,58' E"}},{"type":"Feature","geometry":{"type":"Point","coordinates":[3.115833,39.2805]},"properties":{"zoneId":"rm-reserva-integral-del-migjorn-de-mallorca--reserva-marina","fuente":"reservas-marinas","nombre":"Reserva Integral del Migjorn de Mallorca","proteccion":"Reserva marina","latitudTexto":"39° 16,83' N","longitudTexto":"3° 06,95' E"}},{"type":"Feature","geometry":{"type":"Point","coordinates":[4.036105,40.088435]},"properties":{"zoneId":"rm-reserva-marina-del-nord-de-menorca--reserva-marina","fuente":"reservas-marinas","nombre":"Reserva Marina del Nord de Menorca","proteccion":"Reserva marina","latitudTexto":"40° 05,31' N","longitudTexto":"4° 02,17' E"}},{"type":"Feature","geometry":{"type":"Point","coordinates":[4.027548,40.07414]},"properties":{"zoneId":"rm-reserva-marina-del-nord-de-menorca--reserva-marina","fuente":"reservas-marinas","nombre":"Reserva Marina del Nord de Menorca","proteccion":"Reserva marina","latitudTexto":"40° 04,45' N","longitudTexto":"4° 01,65' E"}},{"type":"Feature","geometry":{"type":"Point","coordinates":[3.967958,40.07056]},"properties":{"zoneId":"rm-reserva-marina-del-nord-de-menorca--reserva-marina","fuente":"reservas-marinas","nombre":"Reserva Marina del Nord de Menorca","proteccion":"Reserva marina","latitudTexto":"40° 04,23' N","longitudTexto":"3° 58,08' E"}},{"type":"Feature","geometry":{"type":"Point","coordinates":[1.458333,38.891278]},"properties":{"zoneId":"rm-reserva-marina-dels-freus-d-eivissa-i-formentera--reserva-marina","fuente":"reservas-marinas","nombre":"Reserva Marina dels Freus d'Eivissa i Formentera","proteccion":"Reserva marina","latitudTexto":"38° 53,48' N","longitudTexto":"1° 27,50' E"}},{"type":"Feature","geometry":{"type":"Point","coordinates":[1.433333,38.873056]},"properties":{"zoneId":"rm-reserva-marina-dels-freus-d-eivissa-i-formentera--reserva-marina","fuente":"reservas-marinas","nombre":"Reserva Marina dels Freus d'Eivissa i Formentera","proteccion":"Reserva marina","latitudTexto":"38° 52,38' N","longitudTexto":"1° 26,00' E"}},{"type":"Feature","geometry":{"type":"Point","coordinates":[1.491389,38.8145]},"properties":{"zoneId":"rm-reserva-marina-dels-freus-d-eivissa-i-formentera--reserva-marina","fuente":"reservas-marinas","nombre":"Reserva Marina dels Freus d'Eivissa i Formentera","proteccion":"Reserva marina","latitudTexto":"38° 48,87' N","longitudTexto":"1° 29,48' E"}},{"type":"Feature","geometry":{"type":"Point","coordinates":[1.352194,38.7185]},"properties":{"zoneId":"rm-reserva-marina-dels-freus-d-eivissa-i-formentera--reserva-marina","fuente":"reservas-marinas","nombre":"Reserva Marina dels Freus d'Eivissa i Formentera","proteccion":"Reserva marina","latitudTexto":"38° 43,11' N","longitudTexto":"1° 21,13' E"}},{"type":"Feature","geometry":{"type":"Point","coordinates":[1.401944,38.766278]},"properties":{"zoneId":"rm-reserva-marina-dels-freus-d-eivissa-i-formentera--reserva-marina","fuente":"reservas-marinas","nombre":"Reserva Marina dels Freus d'Eivissa i Formentera","proteccion":"Reserva marina","latitudTexto":"38° 45,97' N","longitudTexto":"1° 24,11' E"}},{"type":"Feature","geometry":{"type":"Point","coordinates":[1.353466,38.835358]},"properties":{"zoneId":"rm-reserva-marina-dels-freus-d-eivissa-i-formentera--reserva-marina","fuente":"reservas-marinas","nombre":"Reserva Marina dels Freus d'Eivissa i Formentera","proteccion":"Reserva marina","latitudTexto":"38° 50,12' N","longitudTexto":"1° 21,21' E"}},{"type":"Feature","geometry":{"type":"Point","coordinates":[1.346389,38.845444]},"properties":{"zoneId":"rm-reserva-marina-dels-freus-d-eivissa-i-formentera--reserva-marina","fuente":"reservas-marinas","nombre":"Reserva Marina dels Freus d'Eivissa i Formentera","proteccion":"Reserva marina","latitudTexto":"38° 50,72' N","longitudTexto":"1° 20,78' E"}},{"type":"Feature","geometry":{"type":"Point","coordinates":[1.472222,38.7535]},"properties":{"zoneId":"rm-reserva-marina-dels-freus-d-eivissa-i-formentera--reserva-marina","fuente":"reservas-marinas","nombre":"Reserva Marina dels Freus d'Eivissa i Formentera","proteccion":"Reserva marina","latitudTexto":"38° 45,210 N","longitudTexto":"1° 28,33' E"}},{"type":"Feature","geometry":{"type":"Point","coordinates":[1.507222,38.719889]},"properties":{"zoneId":"rm-reserva-marina-dels-freus-d-eivissa-i-formentera--reserva-marina","fuente":"reservas-marinas","nombre":"Reserva Marina dels Freus d'Eivissa i Formentera","proteccion":"Reserva marina","latitudTexto":"38° 43,19' N","longitudTexto":"1° 30,43' E"}},{"type":"Feature","geometry":{"type":"Point","coordinates":[1.491389,38.810167]},"properties":{"zoneId":"rm-reserva-marina-dels-freus-d-eivissa-i-formentera--reserva-marina","fuente":"reservas-marinas","nombre":"Reserva Marina dels Freus d'Eivissa i Formentera","proteccion":"Reserva marina","latitudTexto":"38° 48,61' N","longitudTexto":"1° 29,48' E"}},{"type":"Feature","geometry":{"type":"Point","coordinates":[1.491389,38.780167]},"properties":{"zoneId":"rm-reserva-marina-dels-freus-d-eivissa-i-formentera--reserva-marina","fuente":"reservas-marinas","nombre":"Reserva Marina dels Freus d'Eivissa i Formentera","proteccion":"Reserva marina","latitudTexto":"38° 46,81' N","longitudTexto":"1° 29,48' E"}},{"type":"Feature","geometry":{"type":"Point","coordinates":[1.480306,38.780167]},"properties":{"zoneId":"rm-reserva-marina-dels-freus-d-eivissa-i-formentera--reserva-marina","fuente":"reservas-marinas","nombre":"Reserva Marina dels Freus d'Eivissa i Formentera","proteccion":"Reserva marina","latitudTexto":"38° 46,81' N","longitudTexto":"1° 28,82' E"}},{"type":"Feature","geometry":{"type":"Point","coordinates":[1.463889,38.810167]},"properties":{"zoneId":"rm-reserva-marina-dels-freus-d-eivissa-i-formentera--reserva-marina","fuente":"reservas-marinas","nombre":"Reserva Marina dels Freus d'Eivissa i Formentera","proteccion":"Reserva marina","latitudTexto":"38° 48,61' N","longitudTexto":"1° 27,83' E"}},{"type":"Feature","geometry":{"type":"Point","coordinates":[1.533901,38.702639]},"properties":{"zoneId":"rm-reserva-marina-punta-de-sa-creu--reserva-marina","fuente":"reservas-marinas","nombre":"Reserva marina punta de sa creu ","proteccion":"Reserva marina","latitudTexto":"38° 42,16' N","longitudTexto":"1° 32,03' E"}},{"type":"Feature","geometry":{"type":"Point","coordinates":[1.59012,38.703231]},"properties":{"zoneId":"rm-reserva-marina-punta-de-sa-creu--reserva-marina","fuente":"reservas-marinas","nombre":"Reserva marina punta de sa creu ","proteccion":"Reserva marina","latitudTexto":"38° 42,19' N","longitudTexto":"1° 35,41' E"}},{"type":"Feature","geometry":{"type":"Point","coordinates":[1.626633,39.059617]},"properties":{"zoneId":"rm-reserva-marina-costa-nord-est-eivissa-tagomago--reserva-marina","fuente":"reservas-marinas","nombre":"Reserva Marina costa nord-est Eivissa Tagomago","proteccion":"Reserva marina","latitudTexto":"39° 03,58' N","longitudTexto":"1° 37,60' E"}},{"type":"Feature","geometry":{"type":"Point","coordinates":[1.634097,39.050825]},"properties":{"zoneId":"rm-reserva-marina-costa-nord-est-eivissa-tagomago--reserva-marina","fuente":"reservas-marinas","nombre":"Reserva Marina costa nord-est Eivissa Tagomago","proteccion":"Reserva marina","latitudTexto":"39° 03,05' N","longitudTexto":"1° 38,05' E"}},{"type":"Feature","geometry":{"type":"Point","coordinates":[1.649014,39.017247]},"properties":{"zoneId":"rm-reserva-marina-costa-nord-est-eivissa-tagomago--reserva-marina","fuente":"reservas-marinas","nombre":"Reserva Marina costa nord-est Eivissa Tagomago","proteccion":"Reserva marina","latitudTexto":"39° 01,04' N","longitudTexto":"1° 38,94' E"}},{"type":"Feature","geometry":{"type":"Point","coordinates":[1.592,38.967]},"properties":{"zoneId":"rm-reserva-marina-costa-nord-est-eivissa-tagomago--reserva-marina","fuente":"reservas-marinas","nombre":"Reserva Marina costa nord-est Eivissa Tagomago","proteccion":"Reserva marina","latitudTexto":"38° 58,02' N","longitudTexto":"1° 35,52' E"}},{"type":"Feature","geometry":{"type":"Point","coordinates":[4.30615,39.823133]},"properties":{"zoneId":"rm-reserva-marina-de-l-illa-de-l-aire--reserva-marina-zona-especial-buceig","fuente":"reservas-marinas","nombre":"Reserva Marina de l’Illa de l’Aire","proteccion":"Reserva marina - zona especial buceig","latitudTexto":"39° 49,39' N","longitudTexto":"4° 18,37' E"}},{"type":"Feature","geometry":{"type":"Point","coordinates":[4.248617,39.806433]},"properties":{"zoneId":"rm-reserva-marina-de-l-illa-de-l-aire--reserva-marina-zona-especial-buceig","fuente":"reservas-marinas","nombre":"Reserva Marina de l’Illa de l’Aire","proteccion":"Reserva marina - zona especial buceig","latitudTexto":"39° 48,39' N","longitudTexto":"4° 14,92' E"}},{"type":"Feature","geometry":{"type":"Point","coordinates":[1.441667,38.891]},"properties":{"zoneId":"rm-reserva-marina-dels-freus-d-eivissa-i-formentera--reserva-marina","fuente":"reservas-marinas","nombre":"Reserva Marina dels Freus d'Eivissa i Formentera","proteccion":"Reserva marina","latitudTexto":"38° 53,46' N","longitudTexto":"1° 26,50' E"}},{"type":"Feature","geometry":{"type":"Point","coordinates":[1.617,39.04]},"properties":{"zoneId":"rm-reserva-marina-costa-nord-est-eivissa-tagomago--reserva-marina","fuente":"reservas-marinas","nombre":"Reserva Marina costa nord-est Eivissa Tagomago","proteccion":"Reserva marina","latitudTexto":"39° 2,40' N","longitudTexto":"1° 37,02' E"}},{"type":"Feature","geometry":{"type":"Point","coordinates":[1.609,39.049]},"properties":{"zoneId":"rm-reserva-marina-costa-nord-est-eivissa-tagomago--reserva-marina","fuente":"reservas-marinas","nombre":"Reserva Marina costa nord-est Eivissa Tagomago","proteccion":"Reserva marina","latitudTexto":"39° 2,94' N","longitudTexto":"1° 36,54' E"}},{"type":"Feature","geometry":{"type":"Point","coordinates":[4.295667,39.798]},"properties":{"zoneId":"rm-reserva-marina-de-l-illa-de-l-aire--reserva-marina-zona-especial-buceig","fuente":"reservas-marinas","nombre":"Reserva Marina de l’Illa de l’Aire","proteccion":"Reserva marina - zona especial buceig","latitudTexto":"39° 47,88' N","longitudTexto":"4° 17,74' E"}},{"type":"Feature","geometry":{"type":"Point","coordinates":[4.2831,39.797167]},"properties":{"zoneId":"rm-reserva-marina-de-l-illa-de-l-aire--reserva-marina-zona-especial-buceig","fuente":"reservas-marinas","nombre":"Reserva Marina de l’Illa de l’Aire","proteccion":"Reserva marina - zona especial buceig","latitudTexto":"39° 47,83' N","longitudTexto":"4° 16,99' E"}},{"type":"Feature","geometry":{"type":"Point","coordinates":[2.965355,39.223981]},"properties":{"zoneId":"rm-reserva-marina-del-migjorn-de-mallorca--reserva-marina","fuente":"reservas-marinas","nombre":"Reserva Marina del Migjorn de Mallorca","proteccion":"Reserva marina","latitudTexto":"39° 13,43' N","longitudTexto":"2° 57,92' E"}},{"type":"Feature","geometry":{"type":"Point","coordinates":[3.934466,40.072322]},"properties":{"zoneId":"rm-reserva-marina-del-nord-de-menorca--reserva-marina","fuente":"reservas-marinas","nombre":"Reserva Marina del Nord de Menorca","proteccion":"Reserva marina","latitudTexto":"40° 04,34' N","longitudTexto":"3° 56,07' E"}},{"type":"Feature","geometry":{"type":"Point","coordinates":[2.289333,39.576333]},"properties":{"zoneId":"rm-reserva-marina-de-sa-dragonera--reserva-integral","fuente":"reservas-marinas","nombre":"Reserva marina de sa Dragonera","proteccion":"Reserva integral","latitudTexto":"39° 34,58' N","longitudTexto":"2° 17,36' E"}},{"type":"Feature","geometry":{"type":"Point","coordinates":[2.332626,39.605542]},"properties":{"zoneId":"rm-reserva-marina-de-sa-dragonera--reserva-integral","fuente":"reservas-marinas","nombre":"Reserva marina de sa Dragonera","proteccion":"Reserva integral","latitudTexto":"39° 36,33' N","longitudTexto":"2° 19,95' E"}},{"type":"Feature","geometry":{"type":"Point","coordinates":[2.747589,39.498941]},"properties":{"zoneId":"rm-reserva-marina-de-la-badia-de-palma--reserva-marina","fuente":"reservas-marinas","nombre":"Reserva Marina de la Badia de Palma","proteccion":"Reserva marina","latitudTexto":"39° 29,93' N","longitudTexto":"2° 44,86' E"}},{"type":"Feature","geometry":{"type":"Point","coordinates":[2.739666,39.412167]},"properties":{"zoneId":"rm-reserva-marina-de-la-badia-de-palma--reserva-marina","fuente":"reservas-marinas","nombre":"Reserva Marina de la Badia de Palma","proteccion":"Reserva marina","latitudTexto":"39° 24,73' N","longitudTexto":"2° 44,38' E"}},{"type":"Feature","geometry":{"type":"Point","coordinates":[2.741367,39.450606]},"properties":{"zoneId":"rm-reserva-marina-de-la-badia-de-palma--reserva-marina","fuente":"reservas-marinas","nombre":"Reserva Marina de la Badia de Palma","proteccion":"Reserva marina","latitudTexto":"39° 27,03' N","longitudTexto":"2° 44,48' E"}},{"type":"Feature","geometry":{"type":"Point","coordinates":[2.722359,39.476541]},"properties":{"zoneId":"rm-reserva-marina-de-la-badia-de-palma--reserva-marina","fuente":"reservas-marinas","nombre":"Reserva Marina de la Badia de Palma","proteccion":"Reserva marina","latitudTexto":"39° 28,59' N","longitudTexto":"2° 43,34' E"}},{"type":"Feature","geometry":{"type":"Point","coordinates":[4.269639,39.809065]},"properties":{"zoneId":"rm-reserva-marina-de-l-illa-de-l-aire--reserva-marina-zona-especial-buceig","fuente":"reservas-marinas","nombre":"Reserva Marina de l’Illa de l’Aire","proteccion":"Reserva marina - zona especial buceig","latitudTexto":"39° 48,54' N","longitudTexto":"4° 16,18' E"}},{"type":"Feature","geometry":{"type":"Point","coordinates":[4.292929,39.820393]},"properties":{"zoneId":"rm-reserva-marina-de-l-illa-de-l-aire--reserva-marina-zona-especial-buceig","fuente":"reservas-marinas","nombre":"Reserva Marina de l’Illa de l’Aire","proteccion":"Reserva marina - zona especial buceig","latitudTexto":"39° 49,22' N","longitudTexto":"4° 17,58' E"}},{"type":"Feature","geometry":{"type":"Point","coordinates":[4.269487,39.800826]},"properties":{"zoneId":"rm-reserva-marina-de-l-illa-de-l-aire--reserva-marina-zona-especial-buceig","fuente":"reservas-marinas","nombre":"Reserva Marina de l’Illa de l’Aire","proteccion":"Reserva marina - zona especial buceig","latitudTexto":"39° 48,05' N","longitudTexto":"4° 16,17' E"}},{"type":"Feature","geometry":{"type":"Point","coordinates":[4.304951,39.820259]},"properties":{"zoneId":"rm-reserva-marina-de-l-illa-de-l-aire--reserva-marina-zona-especial-buceig","fuente":"reservas-marinas","nombre":"Reserva Marina de l’Illa de l’Aire","proteccion":"Reserva marina - zona especial buceig","latitudTexto":"39° 49,22' N","longitudTexto":"4° 18,30' E"}},{"type":"Feature","geometry":{"type":"Point","coordinates":[3.32,39.867778]},"properties":{"zoneId":"rm-reserva-marina-del-levante-de-mallorca-cala-rajada--reserva-marina-autonomica","fuente":"reservas-marinas","nombre":"Reserva Marina del Levante de Mallorca-Cala Rajada","proteccion":"Reserva marina autonòmica","latitudTexto":"39° 52,06' N","longitudTexto":"3° 19,20' E"}},{"type":"Feature","geometry":{"type":"Point","coordinates":[3.319997,39.756132]},"properties":{"zoneId":"rm-reserva-marina-del-levante-de-mallorca-cala-rajada--reserva-marina-autonomica","fuente":"reservas-marinas","nombre":"Reserva Marina del Levante de Mallorca-Cala Rajada","proteccion":"Reserva marina autonòmica","latitudTexto":"45º 45,37' N","longitudTexto":"3° 19,20' E"}},{"type":"Feature","geometry":{"type":"Point","coordinates":[3.35,39.788203]},"properties":{"zoneId":"rm-reserva-marina-del-levante-de-mallorca-cala-rajada--reserva-marina-autonomica","fuente":"reservas-marinas","nombre":"Reserva Marina del Levante de Mallorca-Cala Rajada","proteccion":"Reserva marina autonòmica","latitudTexto":"39º 47,29 N","longitudTexto":"3º 21,00' E"}},{"type":"Feature","geometry":{"type":"Point","coordinates":[3.39736,39.76444]},"properties":{"zoneId":"rm-reserva-marina-del-levante-de-mallorca-cala-rajada--reserva-marina-autonomica","fuente":"reservas-marinas","nombre":"Reserva Marina del Levante de Mallorca-Cala Rajada","proteccion":"Reserva marina autonòmica","latitudTexto":"39º 45,85' N","longitudTexto":"3º 23.85' E"}},{"type":"Feature","geometry":{"type":"Point","coordinates":[3.459526,39.747288]},"properties":{"zoneId":"rm-reserva-marina-del-levante-de-mallorca-cala-rajada--reserva-marina-autonomica","fuente":"reservas-marinas","nombre":"Reserva Marina del Levante de Mallorca-Cala Rajada","proteccion":"Reserva marina autonòmica","latitudTexto":"39º 44.84' N","longitudTexto":"3º 27,57' E"}},{"type":"Feature","geometry":{"type":"Point","coordinates":[3.456254,39.702515]},"properties":{"zoneId":"rm-reserva-marina-del-levante-de-mallorca-cala-rajada--reserva-marina-autonomica","fuente":"reservas-marinas","nombre":"Reserva Marina del Levante de Mallorca-Cala Rajada","proteccion":"Reserva marina autonòmica","latitudTexto":"39º 42.15' N","longitudTexto":"3º 27.38' E"}},{"type":"Feature","geometry":{"type":"Point","coordinates":[3.475636,39.720361]},"properties":{"zoneId":"rm-reserva-marina-del-levante-de-mallorca-cala-rajada--reserva-marina-autonomica","fuente":"reservas-marinas","nombre":"Reserva Marina del Levante de Mallorca-Cala Rajada","proteccion":"Reserva marina autonòmica","latitudTexto":"39º 42,22 N","longitudTexto":"3º 28.29' E"}},{"type":"Feature","geometry":{"type":"Point","coordinates":[3.461805,39.738523]},"properties":{"zoneId":"rm-reserva-marina-del-levante-de-mallorca-cala-rajada--reserva-marina-autonomica","fuente":"reservas-marinas","nombre":"Reserva Marina del Levante de Mallorca-Cala Rajada","proteccion":"Reserva marina autonòmica","latitudTexto":"39º 44,31 N","longitudTexto":"3º 27,71' E"}},{"type":"Feature","geometry":{"type":"Point","coordinates":[1.183708,38.868672]},"properties":{"zoneId":"rm-reserva-marina-es-vedra-vedranell--reserva-marina","fuente":"reservas-marinas","nombre":"Reserva Marina es Vedrà - Vedranell","proteccion":"Reserva Marina","latitudTexto":"38° 52.120' N","longitudTexto":"001° 11.022' E"}},{"type":"Feature","geometry":{"type":"Point","coordinates":[1.215876,38.882532]},"properties":{"zoneId":"rm-reserva-marina-es-vedra-vedranell--reserva-marina","fuente":"reservas-marinas","nombre":"Reserva Marina es Vedrà - Vedranell","proteccion":"Reserva Marina","latitudTexto":"38° 52.952' N","longitudTexto":"001° 12.953' E"}},{"type":"Feature","geometry":{"type":"Point","coordinates":[1.228575,38.862416]},"properties":{"zoneId":"rm-reserva-marina-es-vedra-vedranell--reserva-marina","fuente":"reservas-marinas","nombre":"Reserva Marina es Vedrà - Vedranell","proteccion":"Reserva Marina","latitudTexto":"38° 51.745' N","longitudTexto":"001° 13.715' E"}},{"type":"Feature","geometry":{"type":"Point","coordinates":[1.188299,38.858205]},"properties":{"zoneId":"rm-reserva-marina-es-vedra-vedranell--reserva-marina","fuente":"reservas-marinas","nombre":"Reserva Marina es Vedrà - Vedranell","proteccion":"Reserva Marina","latitudTexto":"38° 51.492' N","longitudTexto":"001° 11.298' E"}},{"type":"Feature","geometry":{"type":"Point","coordinates":[1.1855,38.861333]},"properties":{"zoneId":"rm-reserva-marina-es-vedra-vedranell--reserva-marina","fuente":"reservas-marinas","nombre":"Reserva Marina es Vedrà - Vedranell","proteccion":"Reserva Marina","latitudTexto":"38° 51.680' N","longitudTexto":"001° 11.130' E"}},{"type":"Feature","geometry":{"type":"Point","coordinates":[1.186667,38.862217]},"properties":{"zoneId":"rm-zona-especial-proteccio-es-vedra-punta-de-na-bruta--zona-especial-proteccio","fuente":"reservas-marinas","nombre":"Zona especial protecció es Vedrà (Punta de na Bruta)","proteccion":"Zona especial protecció","latitudTexto":"38° 51.733' N","longitudTexto":"001° 11.200' E"}},{"type":"Feature","geometry":{"type":"Point","coordinates":[1.186383,38.8629]},"properties":{"zoneId":"rm-zona-especial-proteccio-es-vedra-punta-de-na-bruta--zona-d-especial-proteccio","fuente":"reservas-marinas","nombre":"Zona especial protecció es Vedrà (Punta de na Bruta)","proteccion":"Zona d'especial protecció ","latitudTexto":"38° 51.774' N","longitudTexto":"001° 11.183' E"}},{"type":"Feature","geometry":{"type":"Point","coordinates":[1.1892,38.86275]},"properties":{"zoneId":"rm-zona-especial-proteccio-es-vedra-punta-de-na-bruta--zona-d-especial-proteccio","fuente":"reservas-marinas","nombre":"Zona especial protecció es Vedrà (Punta de na Bruta)","proteccion":"Zona d'especial protecció ","latitudTexto":"38° 51.765' N","longitudTexto":"001° 11.352' E"}},{"type":"Feature","geometry":{"type":"Point","coordinates":[1.189033,38.861767]},"properties":{"zoneId":"rm-zona-especial-proteccio-es-vedra-punta-de-na-bruta--zona-d-especial-proteccio","fuente":"reservas-marinas","nombre":"Zona especial protecció es Vedrà (Punta de na Bruta)","proteccion":"Zona d'especial protecció ","latitudTexto":"38° 51.706' N","longitudTexto":"001° 11.342' E"}},{"type":"Feature","geometry":{"type":"Point","coordinates":[1.176811,38.986464]},"properties":{"zoneId":"rm-reserva-marina-de-ses-bledes--reserva-marina","fuente":"reservas-marinas","nombre":"Reserva Marina de ses Bledes","proteccion":"Reserva Marina","latitudTexto":"38° 59.188' N","longitudTexto":"001° 10.609' E"}},{"type":"Feature","geometry":{"type":"Point","coordinates":[1.157167,38.977167]},"properties":{"zoneId":"rm-reserva-marina-de-ses-bledes--reserva-marina","fuente":"reservas-marinas","nombre":"Reserva Marina de ses Bledes","proteccion":"Reserva Marina","latitudTexto":"38° 58.630' N","longitudTexto":"001° 09.430' E"}},{"type":"Feature","geometry":{"type":"Point","coordinates":[1.161946,38.957655]},"properties":{"zoneId":"rm-reserva-marina-de-ses-bledes--reserva-marina","fuente":"reservas-marinas","nombre":"Reserva Marina de ses Bledes","proteccion":"Reserva Marina","latitudTexto":"38° 57.459' N","longitudTexto":"001° 09.717' E"}},{"type":"Feature","geometry":{"type":"Point","coordinates":[1.177657,38.953454]},"properties":{"zoneId":"rm-reserva-marina-de-ses-bledes--reserva-marina","fuente":"reservas-marinas","nombre":"Reserva Marina de ses Bledes","proteccion":"Reserva Marina","latitudTexto":"38° 57.207' N","longitudTexto":"001° 10.659' E"}},{"type":"Feature","geometry":{"type":"Point","coordinates":[1.164267,38.967033]},"properties":{"zoneId":"rm-zona-especial-proteccio-de-na-bosc-es-vaixell-i-na-gorra--zona-especial-proteccio","fuente":"reservas-marinas","nombre":"Zona especial protecció de na Bosc, es vaixell i na Gorra","proteccion":"Zona especial protecció","latitudTexto":"38° 58.022' N","longitudTexto":"001° 09.856' E"}},{"type":"Feature","geometry":{"type":"Point","coordinates":[1.162517,38.973917]},"properties":{"zoneId":"rm-zona-especial-proteccio-de-na-bosc-es-vaixell-i-na-gorra--zona-especial-proteccio","fuente":"reservas-marinas","nombre":"Zona especial protecció de na Bosc, es vaixell i na Gorra","proteccion":"Zona especial protecció","latitudTexto":"38° 58.435' N","longitudTexto":"001° 09.751' E"}},{"type":"Feature","geometry":{"type":"Point","coordinates":[1.167,38.97415]},"properties":{"zoneId":"rm-zona-especial-proteccio-de-na-bosc-es-vaixell-i-na-gorra--zona-especial-proteccio","fuente":"reservas-marinas","nombre":"Zona especial protecció de na Bosc, es vaixell i na Gorra","proteccion":"Zona especial protecció","latitudTexto":"38° 58.449' N","longitudTexto":"001° 10.020' E"}},{"type":"Feature","geometry":{"type":"Point","coordinates":[1.168833,38.972217]},"properties":{"zoneId":"rm-zona-especial-proteccio-de-na-bosc-es-vaixell-i-na-gorra--zona-especial-proteccio","fuente":"reservas-marinas","nombre":"Zona especial protecció de na Bosc, es vaixell i na Gorra","proteccion":"Zona especial protecció","latitudTexto":"38° 58.333' N","longitudTexto":"001° 10.123' E"}},{"type":"Feature","geometry":{"type":"Point","coordinates":[1.16725,38.966967]},"properties":{"zoneId":"rm-zona-especial-proteccio-de-na-bosc-es-vaixell-i-na-gorra--zona-especial-proteccio","fuente":"reservas-marinas","nombre":"Zona especial protecció de na Bosc, es vaixell i na Gorra","proteccion":"Zona especial protecció","latitudTexto":"38° 58.018' N","longitudTexto":"001° 10.035' E"}},{"type":"Feature","geometry":{"type":"Point","coordinates":[2.338414,39.597181]},"properties":{"zoneId":"rm-zona-d-alta-proteccio-a-l-entorn-dels-illots-dels-calafats--zona-d-alta-proteccio","fuente":"reservas-marinas","nombre":"Zona d'alta protecció a l'entorn dels illots dels Calafats","proteccion":"Zona d'alta protecció","latitudTexto":"39° 35.831' N","longitudTexto":"002° 20.305' E"}},{"type":"Feature","geometry":{"type":"Point","coordinates":[2.328878,39.586747]},"properties":{"zoneId":"rm-zona-d-alta-proteccio-a-l-entorn-dels-illots-dels-calafats--zona-d-alta-proteccio","fuente":"reservas-marinas","nombre":"Zona d'alta protecció a l'entorn dels illots dels Calafats","proteccion":"Zona d'alta protecció","latitudTexto":"39° 35.205' N","longitudTexto":"002° 19.733' E"}},{"type":"Feature","geometry":{"type":"Point","coordinates":[2.333192,39.586217]},"properties":{"zoneId":"rm-zona-d-alta-proteccio-a-l-entorn-dels-illots-dels-calafats--zona-d-alta-proteccio","fuente":"reservas-marinas","nombre":"Zona d'alta protecció a l'entorn dels illots dels Calafats","proteccion":"Zona d'alta protecció","latitudTexto":"39° 35.173' N","longitudTexto":"002° 19.992' E"}},{"type":"Feature","geometry":{"type":"Point","coordinates":[2.340112,39.591907]},"properties":{"zoneId":"rm-zona-d-alta-proteccio-a-l-entorn-dels-illots-dels-calafats--zona-d-alta-proteccio","fuente":"reservas-marinas","nombre":"Zona d'alta protecció a l'entorn dels illots dels Calafats","proteccion":"Zona d'alta protecció","latitudTexto":"39° 35.514' N","longitudTexto":"002° 20.407' E"}},{"type":"Feature","geometry":{"type":"Point","coordinates":[2.535265,39.486407]},"properties":{"zoneId":"rm-reserva-marina-del-ponent-de-mallorca--sin-proteccion","fuente":"reservas-marinas","nombre":"Reserva Marina del Ponent de Mallorca","proteccion":null,"latitudTexto":"39° 29.184' N","longitudTexto":"002° 32.116' E"}},{"type":"Feature","geometry":{"type":"Point","coordinates":[2.552447,39.484542]},"properties":{"zoneId":"rm-reserva-marina-del-ponent-de-mallorca--sin-proteccion","fuente":"reservas-marinas","nombre":"Reserva Marina del Ponent de Mallorca","proteccion":null,"latitudTexto":"39° 29.073' N","longitudTexto":"002° 33.147' E"}},{"type":"Feature","geometry":{"type":"Point","coordinates":[2.5176,39.439483]},"properties":{"zoneId":"rm-reserva-marina-del-ponent-de-mallorca--sin-proteccion","fuente":"reservas-marinas","nombre":"Reserva Marina del Ponent de Mallorca","proteccion":null,"latitudTexto":"39° 26.369' N","longitudTexto":"002° 31.056' E"}},{"type":"Feature","geometry":{"type":"Point","coordinates":[2.467387,39.457642]},"properties":{"zoneId":"rm-reserva-marina-del-ponent-de-mallorca--sin-proteccion","fuente":"reservas-marinas","nombre":"Reserva Marina del Ponent de Mallorca","proteccion":null,"latitudTexto":"39° 27.459' N","longitudTexto":"002° 28.043' E"}},{"type":"Feature","geometry":{"type":"Point","coordinates":[2.434132,39.493107]},"properties":{"zoneId":"rm-reserva-marina-del-ponent-de-mallorca--sin-proteccion","fuente":"reservas-marinas","nombre":"Reserva Marina del Ponent de Mallorca","proteccion":null,"latitudTexto":"39° 29.586' N","longitudTexto":"002° 26.048' E"}},{"type":"Feature","geometry":{"type":"Point","coordinates":[2.452151,39.487667]},"properties":{"zoneId":"rm-reserva-marina-del-ponent-de-mallorca--sin-proteccion","fuente":"reservas-marinas","nombre":"Reserva Marina del Ponent de Mallorca","proteccion":null,"latitudTexto":"39° 29.260' N","longitudTexto":"002° 27.129' E"}},{"type":"Feature","geometry":{"type":"Point","coordinates":[2.459295,39.50981]},"properties":{"zoneId":"rm-reserva-marina-del-ponent-de-mallorca--sin-proteccion","fuente":"reservas-marinas","nombre":"Reserva Marina del Ponent de Mallorca","proteccion":null,"latitudTexto":"39° 30.589' N","longitudTexto":"002° 27.558' E"}},{"type":"Feature","geometry":{"type":"Point","coordinates":[2.471178,39.459628]},"properties":{"zoneId":"rm-reserva-marina-del-ponent-de-mallorca--sin-proteccion","fuente":"reservas-marinas","nombre":"Reserva Marina del Ponent de Mallorca","proteccion":null,"latitudTexto":"39° 27.578' N","longitudTexto":"002° 28.271' E"}},{"type":"Feature","geometry":{"type":"Point","coordinates":[2.46842,39.461471]},"properties":{"zoneId":"rm-reserva-marina-del-ponent-de-mallorca--sin-proteccion","fuente":"reservas-marinas","nombre":"Reserva Marina del Ponent de Mallorca","proteccion":null,"latitudTexto":"39° 27.688' N","longitudTexto":"002° 28.105' E"}},{"type":"Feature","geometry":{"type":"Point","coordinates":[2.447952,39.492574]},"properties":{"zoneId":"rm-reserva-marina-del-ponent-de-mallorca--sin-proteccion","fuente":"reservas-marinas","nombre":"Reserva Marina del Ponent de Mallorca","proteccion":null,"latitudTexto":"39° 29.554' N","longitudTexto":"002° 26.877' E"}},{"type":"Feature","geometry":{"type":"Point","coordinates":[2.443779,39.496714]},"properties":{"zoneId":"rm-reserva-marina-del-ponent-de-mallorca--sin-proteccion","fuente":"reservas-marinas","nombre":"Reserva Marina del Ponent de Mallorca","proteccion":null,"latitudTexto":"39° 29.803' N","longitudTexto":"002° 26.627' E"}},{"type":"Feature","geometry":{"type":"Point","coordinates":[2.456233,39.504857]},"properties":{"zoneId":"rm-reserva-marina-del-ponent-de-mallorca--sin-proteccion","fuente":"reservas-marinas","nombre":"Reserva Marina del Ponent de Mallorca","proteccion":null,"latitudTexto":"39° 30.291' N","longitudTexto":"002° 27.374' E"}},{"type":"Feature","geometry":{"type":"Point","coordinates":[2.491537,39.471876]},"properties":{"zoneId":"rm-reserva-marina-del-ponent-de-mallorca--sin-proteccion","fuente":"reservas-marinas","nombre":"Reserva Marina del Ponent de Mallorca","proteccion":null,"latitudTexto":"39° 28.313' N","longitudTexto":"002° 29.492' E"}},{"type":"Feature","geometry":{"type":"Point","coordinates":[2.459413,39.49888]},"properties":{"zoneId":"rm-reserva-marina-del-ponent-de-mallorca--sin-proteccion","fuente":"reservas-marinas","nombre":"Reserva Marina del Ponent de Mallorca","proteccion":null,"latitudTexto":"39° 29.933' N","longitudTexto":"002° 27.565' E"}},{"type":"Feature","geometry":{"type":"Point","coordinates":[2.478062,39.477499]},"properties":{"zoneId":"rm-reserva-marina-del-ponent-de-mallorca--sin-proteccion","fuente":"reservas-marinas","nombre":"Reserva Marina del Ponent de Mallorca","proteccion":null,"latitudTexto":"39° 28.650' N","longitudTexto":"002° 28.684' E"}},{"type":"Feature","geometry":{"type":"Point","coordinates":[2.544717,39.480917]},"properties":{"zoneId":"rm-reserva-marina-del-ponent-de-mallorca--sin-proteccion","fuente":"reservas-marinas","nombre":"Reserva Marina del Ponent de Mallorca","proteccion":null,"latitudTexto":"39° 28.855' N","longitudTexto":"002° 32.683' E"}},{"type":"Feature","geometry":{"type":"Point","coordinates":[2.54005,39.481933]},"properties":{"zoneId":"rm-reserva-marina-del-ponent-de-mallorca--sin-proteccion","fuente":"reservas-marinas","nombre":"Reserva Marina del Ponent de Mallorca","proteccion":null,"latitudTexto":"39° 28.916' N","longitudTexto":"002° 32.403' E"}},{"type":"Feature","geometry":{"type":"Point","coordinates":[2.540917,39.4773]},"properties":{"zoneId":"rm-reserva-marina-del-ponent-de-mallorca--sin-proteccion","fuente":"reservas-marinas","nombre":"Reserva Marina del Ponent de Mallorca","proteccion":null,"latitudTexto":"39° 28.638' N","longitudTexto":"002° 32.455' E"}},{"type":"Feature","geometry":{"type":"Point","coordinates":[2.466817,39.518967]},"properties":{"zoneId":"rm-reserva-marina-del-ponent-de-mallorca--sin-proteccion","fuente":"reservas-marinas","nombre":"Reserva Marina del Ponent de Mallorca","proteccion":null,"latitudTexto":"39° 31.138' N","longitudTexto":"002° 28.009' E"}},{"type":"Feature","geometry":{"type":"Point","coordinates":[2.53795,39.4783]},"properties":{"zoneId":"rm-reserva-marina-del-ponent-de-mallorca--sin-proteccion","fuente":"reservas-marinas","nombre":"Reserva Marina del Ponent de Mallorca","proteccion":null,"latitudTexto":"39° 28.698' N","longitudTexto":"002° 32.277' E"}}]}